"ZIP","FIPS","CountyName","St","Name","Lat","Long","Enc_ZIP","Pops","Area","PopDensity"
60001,17111,"McHenry","IL","60001 Alden",42.421141,-88.616252,"60033",0,0,0
60002,17097,"Lake","IL","60002 Antioch",42.474263,-88.103323,"",0,0,0
60004,17031,"Cook","IL","60004 Arlington Heights",42.111424,-87.980372,"",0,0,0
60005,17031,"Cook","IL","60005 Arlington Heights",42.064974,-87.982208,"",0,0,0
60006,17031,"Cook","IL","60006 Arlington Heights",42.088133,-87.993611,"60005",0,0,0
60007,17031,"Cook","IL","60007 Elk Grove Village",42.005150,-88.009414,"",0,0,0
60008,17031,"Cook","IL","60008 Rolling Meadows",42.071264,-88.023985,"",0,0,0
60009,17031,"Cook","IL","60009 Elk Grove Village",42.015093,-87.978862,"60007",0,0,0
60010,17097,"Lake","IL","60010 Barrington",42.168755,-88.151686,"",0,0,0
60011,17031,"Cook","IL","60011 Barrington",42.131229,-88.129859,"60010",0,0,0
60012,17111,"McHenry","IL","60012 Crystal Lake",42.268747,-88.320894,"",0,0,0
60013,17111,"McHenry","IL","60013 Cary",42.216197,-88.244826,"",0,0,0
60014,17111,"McHenry","IL","60014 Crystal Lake",42.224602,-88.329041,"",0,0,0
60015,17097,"Lake","IL","60015 Deerfield",42.163835,-87.867167,"",0,0,0
60016,17031,"Cook","IL","60016 Des Plaines",42.045876,-87.889108,"",0,0,0
60017,17031,"Cook","IL","60017 Des Plaines",42.023605,-87.900643,"60018",0,0,0
60018,17031,"Cook","IL","60018 Des Plaines",42.015530,-87.899815,"",0,0,0
60019,17031,"Cook","IL","60019 Des Plaines",42.023703,-87.899261,"60018",0,0,0
60020,17097,"Lake","IL","60020 Fox Lake",42.401532,-88.177864,"",0,0,0
60021,17111,"McHenry","IL","60021 Fox River Grove",42.193959,-88.214564,"",0,0,0
60022,17031,"Cook","IL","60022 Glencoe",42.134987,-87.762393,"",0,0,0
60025,17031,"Cook","IL","60025 Glenview",42.074050,-87.826844,"",0,0,0
60026,17031,"Cook","IL","60026 Glenview",42.089714,-87.836504,"",0,0,0
60029,17031,"Cook","IL","60029 Golf",42.060579,-87.790251,"",0,0,0
60030,17097,"Lake","IL","60030 Grayslake",42.346972,-88.030957,"",0,0,0
60031,17097,"Lake","IL","60031 Gurnee",42.383011,-87.938912,"",0,0,0
60033,17111,"McHenry","IL","60033 Harvard",42.422093,-88.608522,"",0,0,0
60034,17111,"McHenry","IL","60034 Hebron",42.470726,-88.431527,"",0,0,0
60035,17097,"Lake","IL","60035 Highland Park",42.183411,-87.805648,"",0,0,0
60037,17097,"Lake","IL","60037 Fort Sheridan",42.207044,-87.802025,"",0,0,0
60038,17031,"Cook","IL","60038 Palatine",42.097209,-88.012329,"60074",0,0,0
60039,17111,"McHenry","IL","60039 Crystal Lake",42.233192,-88.302463,"60014",0,0,0
60040,17097,"Lake","IL","60040 Highwood",42.205176,-87.814534,"",0,0,0
60041,17097,"Lake","IL","60041 Ingleside",42.375338,-88.139878,"",0,0,0
60042,17111,"McHenry","IL","60042 Island Lake",42.277712,-88.203314,"",0,0,0
60043,17031,"Cook","IL","60043 Kenilworth",42.087795,-87.716276,"",0,0,0
60044,17097,"Lake","IL","60044 Lake Bluff",42.289007,-87.855941,"",0,0,0
60045,17097,"Lake","IL","60045 Lake Forest",42.229666,-87.869098,"",0,0,0
60046,17097,"Lake","IL","60046 Lake Villa",42.416549,-88.063611,"",0,0,0
60047,17097,"Lake","IL","60047 Lake Zurich",42.201016,-88.063698,"",0,0,0
60048,17097,"Lake","IL","60048 Libertyville",42.284850,-87.950153,"",0,0,0
60049,17097,"Lake","IL","60049 Long Grove",42.199542,-88.041707,"60047",0,0,0
60050,17111,"McHenry","IL","60050 McHenry",42.354324,-88.275508,"",0,0,0
60051,17111,"McHenry","IL","60051 McHenry",42.334510,-88.212672,"",0,0,0
60053,17031,"Cook","IL","60053 Morton Grove",42.042835,-87.794376,"",0,0,0
60055,17031,"Cook","IL","60055 Palatine",42.125186,-88.075317,"60067",0,0,0
60056,17031,"Cook","IL","60056 Mount Prospect",42.059258,-87.937357,"",0,0,0
60060,17097,"Lake","IL","60060 Mundelein",42.265144,-88.008291,"",0,0,0
60061,17097,"Lake","IL","60061 Vernon Hills",42.231560,-87.965635,"",0,0,0
60062,17031,"Cook","IL","60062 Northbrook",42.122948,-87.847917,"",0,0,0
60064,17097,"Lake","IL","60064 North Chicago",42.330623,-87.855887,"",0,0,0
60065,17031,"Cook","IL","60065 Northbrook",42.138346,-87.845803,"60062",0,0,0
60067,17031,"Cook","IL","60067 Palatine",42.107687,-88.058209,"",0,0,0
60068,17031,"Cook","IL","60068 Park Ridge",42.013281,-87.844285,"",0,0,0
60069,17097,"Lake","IL","60069 Lincolnshire",42.194665,-87.926403,"",0,0,0
60070,17031,"Cook","IL","60070 Prospect Heights",42.103494,-87.907611,"",0,0,0
60071,17111,"McHenry","IL","60071 Richmond",42.465395,-88.290850,"",0,0,0
60072,17111,"McHenry","IL","60072 Ringwood",42.401688,-88.303103,"",0,0,0
60073,17097,"Lake","IL","60073 Round Lake",42.365443,-88.089795,"",0,0,0
60074,17031,"Cook","IL","60074 Palatine",42.130083,-88.025810,"",0,0,0
60075,17097,"Lake","IL","60075 Russell",42.490410,-87.912783,"60099",0,0,0
60076,17031,"Cook","IL","60076 Skokie",42.037148,-87.731373,"",0,0,0
60077,17031,"Cook","IL","60077 Skokie",42.035309,-87.753329,"",0,0,0
60078,17031,"Cook","IL","60078 Palatine",42.115696,-88.053309,"60067",0,0,0
60079,17097,"Lake","IL","60079 Waukegan",42.364252,-87.831587,"60085",0,0,0
60081,17111,"McHenry","IL","60081 Spring Grove",42.441382,-88.216456,"",0,0,0
60082,17031,"Cook","IL","60082 Techny",42.113276,-87.795207,"",0,0,0
60083,17097,"Lake","IL","60083 Wadsworth",42.429367,-87.927309,"",0,0,0
60084,17097,"Lake","IL","60084 Wauconda",42.270041,-88.136821,"",0,0,0
60085,17097,"Lake","IL","60085 Waukegan",42.361834,-87.864409,"",0,0,0
60086,17097,"Lake","IL","60086 North Chicago",42.305871,-87.857417,"60088",0,0,0
60087,17097,"Lake","IL","60087 Waukegan",42.400927,-87.856031,"",0,0,0
60088,17097,"Lake","IL","60088 Great Lakes",42.309441,-87.852493,"",0,0,0
60089,17097,"Lake","IL","60089 Buffalo Grove",42.161976,-87.962795,"",0,0,0
60090,17031,"Cook","IL","60090 Wheeling",42.135375,-87.933603,"",0,0,0
60091,17031,"Cook","IL","60091 Wilmette",42.078909,-87.726511,"",0,0,0
60092,17097,"Lake","IL","60092 Libertyville",42.259296,-87.946771,"60048",0,0,0
60093,17031,"Cook","IL","60093 Winnetka",42.101127,-87.746034,"",0,0,0
60094,17031,"Cook","IL","60094 Palatine",42.115696,-88.053309,"60067",0,0,0
60095,17031,"Cook","IL","60095 Palatine",42.097209,-88.012329,"60074",0,0,0
60096,17097,"Lake","IL","60096 Winthrop Harbor",42.485568,-87.828937,"",0,0,0
60097,17111,"McHenry","IL","60097 Wonder Lake",42.381993,-88.345242,"",0,0,0
60098,17111,"McHenry","IL","60098 Woodstock",42.315626,-88.446039,"",0,0,0
60099,17097,"Lake","IL","60099 Zion",42.452771,-87.847722,"",0,0,0
60101,17043,"DuPage","IL","60101 Addison",41.934757,-88.006001,"",0,0,0
60102,17111,"McHenry","IL","60102 Algonquin",42.163379,-88.307466,"",0,0,0
60103,17043,"DuPage","IL","60103 Bartlett",41.975445,-88.183680,"",0,0,0
60104,17031,"Cook","IL","60104 Bellwood",41.885050,-87.877166,"",0,0,0
60106,17043,"DuPage","IL","60106 Bensenville",41.953158,-87.942556,"",0,0,0
60107,17031,"Cook","IL","60107 Streamwood",42.020978,-88.171639,"",0,0,0
60108,17043,"DuPage","IL","60108 Bloomingdale",41.951738,-88.087560,"",0,0,0
60109,17089,"Kane","IL","60109 Burlington",42.052751,-88.548085,"60140",0,0,0
60110,17089,"Kane","IL","60110 Carpentersville",42.123256,-88.266889,"",0,0,0
60111,17037,"DeKalb","IL","60111 Clare",42.015616,-88.831797,"",0,0,0
60112,17037,"DeKalb","IL","60112 Cortland",41.923217,-88.690805,"",0,0,0
60113,17141,"Ogle","IL","60113 Creston",41.931117,-88.961320,"61068",0,0,0
60115,17037,"DeKalb","IL","60115 Dekalb",41.931706,-88.758800,"",0,0,0
60116,17043,"DuPage","IL","60116 Carol Stream",41.916966,-88.103568,"60188",0,0,0
60117,17043,"DuPage","IL","60117 Bloomingdale",41.942974,-88.115128,"60108",0,0,0
60118,17089,"Kane","IL","60118 Dundee",42.096391,-88.289675,"",0,0,0
60119,17089,"Kane","IL","60119 Elburn",41.879156,-88.461514,"",0,0,0
60120,17031,"Cook","IL","60120 Elgin",42.040712,-88.249546,"",0,0,0
60121,17089,"Kane","IL","60121 Elgin",42.038210,-88.285119,"60120",0,0,0
60123,17089,"Kane","IL","60123 Elgin",42.037463,-88.330001,"",0,0,0
60125,17043,"DuPage","IL","60125 Carol Stream",41.851808,-88.028803,"60148",0,0,0
60126,17043,"DuPage","IL","60126 Elmhurst",41.893662,-87.946051,"",0,0,0
60128,17043,"DuPage","IL","60128 Carol Stream",41.916966,-88.103568,"60188",0,0,0
60129,17141,"Ogle","IL","60129 Esmond",42.022444,-88.949483,"",0,0,0
60130,17031,"Cook","IL","60130 Forest Park",41.875829,-87.809324,"",0,0,0
60131,17031,"Cook","IL","60131 Franklin Park",41.933845,-87.870304,"",0,0,0
60132,17043,"DuPage","IL","60132 Carol Stream",41.916961,-88.103624,"60188",0,0,0
60133,17043,"DuPage","IL","60133 Hanover Park",41.978531,-88.144840,"",0,0,0
60134,17089,"Kane","IL","60134 Geneva",41.884330,-88.325579,"",0,0,0
60135,17037,"DeKalb","IL","60135 Genoa",42.097272,-88.691005,"",0,0,0
60136,17089,"Kane","IL","60136 Gilberts",42.103222,-88.376128,"",0,0,0
60137,17043,"DuPage","IL","60137 Glen Ellyn",41.861144,-88.064612,"",0,0,0
60138,17043,"DuPage","IL","60138 Glen Ellyn",41.862140,-88.055100,"60137",0,0,0
60139,17043,"DuPage","IL","60139 Glendale Heights",41.919416,-88.073229,"",0,0,0
60140,17089,"Kane","IL","60140 Hampshire",42.094247,-88.531287,"",0,0,0
60141,17031,"Cook","IL","60141 Hines",41.862036,-87.840132,"",0,0,0
60142,17111,"McHenry","IL","60142 Huntley",42.169316,-88.426290,"",0,0,0
60143,17043,"DuPage","IL","60143 Itasca",41.977655,-88.019594,"",0,0,0
60144,17089,"Kane","IL","60144 Kaneville",41.835090,-88.521908,"60119",0,0,0
60145,17037,"DeKalb","IL","60145 Kingston",42.091779,-88.781734,"",0,0,0
60146,17037,"DeKalb","IL","60146 Kirkland",42.088406,-88.881568,"",0,0,0
60147,17089,"Kane","IL","60147 Lafox",41.882287,-88.399723,"60134",0,0,0
60148,17043,"DuPage","IL","60148 Lombard",41.872228,-88.016260,"",0,0,0
60150,17037,"DeKalb","IL","60150 Malta",41.914545,-88.886715,"",0,0,0
60151,17089,"Kane","IL","60151 Maple Park",41.946804,-88.537226,"",0,0,0
60152,17111,"McHenry","IL","60152 Marengo",42.247910,-88.606672,"",0,0,0
60153,17031,"Cook","IL","60153 Maywood",41.879903,-87.843823,"",0,0,0
60154,17031,"Cook","IL","60154 Westchester",41.852843,-87.885618,"",0,0,0
60155,17031,"Cook","IL","60155 Broadview",41.858643,-87.852810,"",0,0,0
60156,17111,"McHenry","IL","60156 Lake in the Hills",42.188059,-88.342839,"",0,0,0
60157,17043,"DuPage","IL","60157 Medinah",41.974317,-88.051516,"",0,0,0
60159,17031,"Cook","IL","60159 Schaumburg",42.026989,-88.090369,"60194",0,0,0
60160,17031,"Cook","IL","60160 Melrose Park",41.900187,-87.858052,"",0,0,0
60161,17031,"Cook","IL","60161 Melrose Park",41.906366,-87.864226,"60160",0,0,0
60162,17031,"Cook","IL","60162 Hillside",41.877499,-87.903156,"",0,0,0
60163,17031,"Cook","IL","60163 Berkeley",41.885916,-87.913643,"",0,0,0
60164,17031,"Cook","IL","60164 Melrose Park",41.919623,-87.896941,"",0,0,0
60165,17031,"Cook","IL","60165 Stone Park",41.903390,-87.881194,"",0,0,0
60168,17031,"Cook","IL","60168 Schaumburg",42.026989,-88.090369,"60194",0,0,0
60170,17089,"Kane","IL","60170 Plato Center",42.038259,-88.285201,"60120",0,0,0
60171,17031,"Cook","IL","60171 River Grove",41.930009,-87.838479,"",0,0,0
60172,17043,"DuPage","IL","60172 Roselle",41.982513,-88.085648,"",0,0,0
60173,17031,"Cook","IL","60173 Schaumburg",42.055930,-88.055216,"",0,0,0
60174,17089,"Kane","IL","60174 Saint Charles",41.914595,-88.307760,"",0,0,0
60175,17089,"Kane","IL","60175 Saint Charles",41.938088,-88.390126,"",0,0,0
60176,17031,"Cook","IL","60176 Schiller Park",41.954418,-87.863428,"",0,0,0
60177,17089,"Kane","IL","60177 South Elgin",41.987671,-88.310915,"",0,0,0
60178,17037,"DeKalb","IL","60178 Sycamore",41.986808,-88.695672,"",0,0,0
60179,17031,"Cook","IL","60179 Hoffman Estates",42.077947,-88.223660,"60192",0,0,0
60180,17111,"McHenry","IL","60180 Union",42.218674,-88.524826,"",0,0,0
60181,17043,"DuPage","IL","60181 Villa Park",41.878659,-87.979697,"",0,0,0
60183,17089,"Kane","IL","60183 Wasco",41.938121,-88.402036,"60175",0,0,0
60184,17043,"DuPage","IL","60184 Wayne",41.951074,-88.249318,"",0,0,0
60185,17043,"DuPage","IL","60185 West Chicago",41.889249,-88.205224,"",0,0,0
60186,17043,"DuPage","IL","60186 West Chicago",41.882266,-88.214180,"60185",0,0,0
60187,17043,"DuPage","IL","60187 Wheaton",41.855202,-88.112838,"",0,0,0
60188,17043,"DuPage","IL","60188 Carol Stream",41.917363,-88.139094,"",0,0,0
60189,17043,"DuPage","IL","60189 Wheaton",41.865222,-88.110086,"60187",0,0,0
60190,17043,"DuPage","IL","60190 Winfield",41.872450,-88.152779,"",0,0,0
60191,17043,"DuPage","IL","60191 Wood Dale",41.961932,-87.981470,"",0,0,0
60192,17031,"Cook","IL","60192 Schaumburg",42.060126,-88.210053,"",0,0,0
60193,17031,"Cook","IL","60193 Schaumburg",42.016340,-88.096870,"",0,0,0
60194,17031,"Cook","IL","60194 Schaumburg",42.038188,-88.109689,"",0,0,0
60195,17031,"Cook","IL","60195 Schaumburg",42.064506,-88.108390,"",0,0,0
60196,17031,"Cook","IL","60196 Schaumburg",42.069057,-88.045986,"60173",0,0,0
60197,17043,"DuPage","IL","60197 Carol Stream",41.916771,-88.101279,"60188",0,0,0
60199,17043,"DuPage","IL","60199 Carol Stream",41.916771,-88.101279,"60188",0,0,0
60201,17031,"Cook","IL","60201 Evanston",42.053843,-87.695307,"",0,0,0
60202,17031,"Cook","IL","60202 Evanston",42.030827,-87.686174,"",0,0,0
60203,17031,"Cook","IL","60203 Evanston",42.049706,-87.714124,"",0,0,0
60204,17031,"Cook","IL","60204 Evanston",42.047140,-87.687318,"60201",0,0,0
60208,17031,"Cook","IL","60208 Evanston",42.055531,-87.676757,"",0,0,0
60209,17031,"Cook","IL","60209 Evanston",42.049639,-87.679124,"60201",0,0,0
60296,17111,"McHenry","IL","60296 McHenry",42.338686,-88.285737,"60050",0,0,0
60297,17111,"McHenry","IL","60297 McHenry",42.338686,-88.285737,"60050",0,0,0
60301,17031,"Cook","IL","60301 Oak Park",41.888626,-87.797179,"",0,0,0
60302,17031,"Cook","IL","60302 Oak Park",41.891823,-87.787982,"",0,0,0
60303,17031,"Cook","IL","60303 Oak Park",41.888815,-87.796877,"60301",0,0,0
60304,17031,"Cook","IL","60304 Oak Park",41.874034,-87.789028,"",0,0,0
60305,17031,"Cook","IL","60305 River Forest",41.896868,-87.811714,"",0,0,0
60398,17031,"Cook","IL","60398 Franklin Park",41.936545,-87.870055,"60131",0,0,0
60399,17043,"DuPage","IL","60399 Wood Dale",41.953699,-87.935311,"60106",0,0,0
60401,17197,"Will","IL","60401 Beecher",41.349309,-87.623791,"",0,0,0
60402,17031,"Cook","IL","60402 Berwyn",41.843746,-87.793106,"",0,0,0
60406,17031,"Cook","IL","60406 Blue Island",41.660016,-87.679686,"",0,0,0
60407,17063,"Grundy","IL","60407 Braceville",41.230244,-88.266306,"",0,0,0
60408,17197,"Will","IL","60408 Braidwood",41.264444,-88.220873,"",0,0,0
60409,17031,"Cook","IL","60409 Calumet City",41.619338,-87.551659,"",0,0,0
60410,17197,"Will","IL","60410 Channahon",41.434098,-88.224486,"",0,0,0
60411,17031,"Cook","IL","60411 Chicago Heights",41.506181,-87.616433,"",0,0,0
60412,17031,"Cook","IL","60412 Chicago Heights",41.506937,-87.634141,"60411",0,0,0
60415,17031,"Cook","IL","60415 Chicago Ridge",41.702121,-87.775261,"",0,0,0
60416,17063,"Grundy","IL","60416 Coal City",41.282407,-88.285241,"",0,0,0
60417,17197,"Will","IL","60417 Crete",41.444063,-87.603510,"",0,0,0
60419,17031,"Cook","IL","60419 Dolton",41.624275,-87.597842,"",0,0,0
60420,17105,"Livingston","IL","60420 Dwight",41.094036,-88.428211,"",0,0,0
60421,17197,"Will","IL","60421 Elwood",41.427261,-88.107539,"",0,0,0
60422,17031,"Cook","IL","60422 Flossmoor",41.540679,-87.683691,"",0,0,0
60423,17197,"Will","IL","60423 Frankfort",41.502926,-87.839592,"",0,0,0
60424,17063,"Grundy","IL","60424 Gardner",41.187455,-88.308200,"",0,0,0
60425,17031,"Cook","IL","60425 Glenwood",41.546567,-87.612400,"",0,0,0
60426,17031,"Cook","IL","60426 Harvey",41.613481,-87.649749,"",0,0,0
60428,17031,"Cook","IL","60428 Markham",41.594001,-87.687094,"",0,0,0
60429,17031,"Cook","IL","60429 Hazel Crest",41.576636,-87.684630,"",0,0,0
60430,17031,"Cook","IL","60430 Homewood",41.555318,-87.665324,"",0,0,0
60431,17197,"Will","IL","60431 Joliet",41.536195,-88.186826,"",0,0,0
60432,17197,"Will","IL","60432 Joliet",41.531700,-88.055124,"",0,0,0
60433,17197,"Will","IL","60433 Joliet",41.517691,-88.047741,"",0,0,0
60434,17197,"Will","IL","60434 Joliet",41.515060,-88.134550,"60436",0,0,0
60435,17197,"Will","IL","60435 Joliet",41.548037,-88.115827,"",0,0,0
60436,17197,"Will","IL","60436 Joliet",41.514382,-88.114816,"",0,0,0
60437,17063,"Grundy","IL","60437 Kinsman",41.166475,-88.557510,"",0,0,0
60438,17031,"Cook","IL","60438 Lansing",41.564744,-87.544137,"",0,0,0
60439,17031,"Cook","IL","60439 Lemont",41.670069,-87.983256,"",0,0,0
60440,17197,"Will","IL","60440 Bolingbrook",41.705824,-88.080724,"",0,0,0
60441,17197,"Will","IL","60441 Lockport",41.585812,-88.037084,"",0,0,0
60442,17197,"Will","IL","60442 Manhattan",41.424928,-87.971199,"",0,0,0
60443,17031,"Cook","IL","60443 Matteson",41.508115,-87.732501,"",0,0,0
60444,17063,"Grundy","IL","60444 Mazon",41.241692,-88.399705,"",0,0,0
60445,17031,"Cook","IL","60445 Midlothian",41.636788,-87.732787,"",0,0,0
60446,17197,"Will","IL","60446 Romeoville",41.635462,-88.111465,"",0,0,0
60447,17063,"Grundy","IL","60447 Minooka",41.455162,-88.265169,"",0,0,0
60448,17197,"Will","IL","60448 Mokena",41.537939,-87.884772,"",0,0,0
60449,17197,"Will","IL","60449 Monee",41.420790,-87.756304,"",0,0,0
60450,17063,"Grundy","IL","60450 Morris",41.367313,-88.425562,"",0,0,0
60451,17197,"Will","IL","60451 New Lenox",41.505322,-87.967890,"",0,0,0
60452,17031,"Cook","IL","60452 Oak Forest",41.610285,-87.751262,"",0,0,0
60453,17031,"Cook","IL","60453 Oak Lawn",41.715391,-87.750304,"",0,0,0
60454,17031,"Cook","IL","60454 Oak Lawn",41.709118,-87.802021,"60455",0,0,0
60455,17031,"Cook","IL","60455 Bridgeview",41.744924,-87.803265,"",0,0,0
60456,17031,"Cook","IL","60456 Hometown",41.731017,-87.729501,"",0,0,0
60457,17031,"Cook","IL","60457 Hickory Hills",41.729706,-87.827992,"",0,0,0
60458,17031,"Cook","IL","60458 Justice",41.744382,-87.832343,"",0,0,0
60459,17031,"Cook","IL","60459 Burbank",41.744595,-87.773184,"",0,0,0
60460,17105,"Livingston","IL","60460 Odell",41.002188,-88.522479,"",0,0,0
60461,17031,"Cook","IL","60461 Olympia Fields",41.515206,-87.697840,"",0,0,0
60462,17031,"Cook","IL","60462 Orland Park",41.620884,-87.838769,"",0,0,0
60463,17031,"Cook","IL","60463 Palos Heights",41.656908,-87.793707,"",0,0,0
60464,17031,"Cook","IL","60464 Palos Park",41.657623,-87.855203,"",0,0,0
60465,17031,"Cook","IL","60465 Palos Hills",41.699984,-87.823101,"",0,0,0
60466,17031,"Cook","IL","60466 Park Forest",41.473571,-87.682682,"",0,0,0
60467,17031,"Cook","IL","60467 Orland Park",41.594756,-87.885867,"",0,0,0
60468,17197,"Will","IL","60468 Peotone",41.332663,-87.793748,"",0,0,0
60469,17031,"Cook","IL","60469 Posen",41.627480,-87.686174,"",0,0,0
60470,17099,"La Salle","IL","60470 Ransom",41.165791,-88.654281,"",0,0,0
60471,17031,"Cook","IL","60471 Richton Park",41.483590,-87.717930,"",0,0,0
60472,17031,"Cook","IL","60472 Robbins",41.644078,-87.706101,"",0,0,0
60473,17031,"Cook","IL","60473 South Holland",41.598797,-87.597632,"",0,0,0
60474,17063,"Grundy","IL","60474 South Wilmington",41.172787,-88.275576,"60424",0,0,0
60475,17197,"Will","IL","60475 Steger",41.469774,-87.637330,"",0,0,0
60476,17031,"Cook","IL","60476 Thornton",41.571176,-87.607184,"",0,0,0
60477,17031,"Cook","IL","60477 Tinley Park",41.574789,-87.800637,"",0,0,0
60478,17031,"Cook","IL","60478 Country Club Hills",41.562394,-87.718630,"",0,0,0
60479,17063,"Grundy","IL","60479 Verona",41.224520,-88.524991,"",0,0,0
60480,17031,"Cook","IL","60480 Willow Springs",41.733724,-87.877260,"",0,0,0
60481,17197,"Will","IL","60481 Wilmington",41.299397,-88.139159,"",0,0,0
60482,17031,"Cook","IL","60482 Worth",41.690969,-87.794083,"",0,0,0
60483,17031,"Cook","IL","60483 Tinley Park",41.580426,-87.794184,"60477",0,0,0
60490,17197,"Will","IL","60490 Bolingbrook",41.681798,-88.133600,"",0,0,0
60491,17197,"Will","IL","60491 Homer Glen",41.614093,-87.951752,"",0,0,0
60499,17031,"Cook","IL","60499 Bedford Park",41.759496,-87.786722,"60638",0,0,0
60501,17031,"Cook","IL","60501 Summit Argo",41.780771,-87.809323,"",0,0,0
60502,17043,"DuPage","IL","60502 Aurora",41.785996,-88.250381,"",0,0,0
60503,17197,"Will","IL","60503 Aurora",41.715613,-88.256346,"",0,0,0
60504,17043,"DuPage","IL","60504 Aurora",41.740800,-88.245568,"",0,0,0
60505,17089,"Kane","IL","60505 Aurora",41.760696,-88.293283,"",0,0,0
60506,17089,"Kane","IL","60506 Aurora",41.767332,-88.354504,"",0,0,0
60507,17089,"Kane","IL","60507 Aurora",41.766611,-88.306713,"60505",0,0,0
60510,17089,"Kane","IL","60510 Batavia",41.845151,-88.312342,"",0,0,0
60511,17089,"Kane","IL","60511 Big Rock",41.758140,-88.547109,"",0,0,0
60512,17093,"Kendall","IL","60512 Bristol",41.699984,-88.421983,"",0,0,0
60513,17031,"Cook","IL","60513 Brookfield",41.822560,-87.848823,"",0,0,0
60514,17043,"DuPage","IL","60514 Clarendon Hills",41.795672,-87.957793,"",0,0,0
60515,17043,"DuPage","IL","60515 Downers Grove",41.799208,-88.014428,"",0,0,0
60516,17043,"DuPage","IL","60516 Downers Grove",41.763662,-88.013135,"",0,0,0
60517,17043,"DuPage","IL","60517 Woodridge",41.752048,-88.043878,"",0,0,0
60518,17099,"La Salle","IL","60518 Earlville",41.589633,-88.920928,"",0,0,0
60519,17043,"DuPage","IL","60519 Eola",41.779067,-88.242318,"60502",0,0,0
60520,17037,"DeKalb","IL","60520 Hinckley",41.767986,-88.641725,"",0,0,0
60521,17043,"DuPage","IL","60521 Hinsdale",41.796396,-87.928293,"",0,0,0
60522,17043,"DuPage","IL","60522 Hinsdale",41.841848,-87.951062,"60523",0,0,0
60523,17043,"DuPage","IL","60523 Oak Brook",41.839479,-87.962831,"",0,0,0
60525,17031,"Cook","IL","60525 La Grange",41.787089,-87.874312,"",0,0,0
60526,17031,"Cook","IL","60526 La Grange Park",41.833736,-87.869138,"",0,0,0
60527,17043,"DuPage","IL","60527 Willowbrook",41.747990,-87.933665,"",0,0,0
60530,17103,"Lee","IL","60530 Lee",41.780936,-88.961513,"",0,0,0
60531,17099,"La Salle","IL","60531 Leland",41.601913,-88.769692,"",0,0,0
60532,17043,"DuPage","IL","60532 Lisle",41.785349,-88.079455,"",0,0,0
60534,17031,"Cook","IL","60534 Lyons",41.813998,-87.825492,"",0,0,0
60536,17093,"Kendall","IL","60536 Millbrook",41.598025,-88.553280,"60541",0,0,0
60537,17093,"Kendall","IL","60537 Millington",41.563029,-88.599119,"60541",0,0,0
60538,17093,"Kendall","IL","60538 Montgomery",41.717984,-88.334551,"",0,0,0
60539,17089,"Kane","IL","60539 Mooseheart",41.829202,-88.333633,"",0,0,0
60540,17043,"DuPage","IL","60540 Naperville",41.765202,-88.147280,"",0,0,0
60541,17093,"Kendall","IL","60541 Newark",41.492777,-88.509954,"",0,0,0
60542,17089,"Kane","IL","60542 North Aurora",41.809149,-88.332583,"",0,0,0
60543,17093,"Kendall","IL","60543 Oswego",41.690824,-88.344770,"",0,0,0
60544,17197,"Will","IL","60544 Plainfield",41.628225,-88.172807,"",0,0,0
60545,17093,"Kendall","IL","60545 Plano",41.663855,-88.537776,"",0,0,0
60546,17031,"Cook","IL","60546 Riverside",41.835949,-87.824140,"",0,0,0
60548,17037,"DeKalb","IL","60548 Sandwich",41.638563,-88.621624,"",0,0,0
60549,17099,"La Salle","IL","60549 Serena",41.485034,-88.747476,"",0,0,0
60550,17037,"DeKalb","IL","60550 Shabbona",41.775510,-88.877165,"",0,0,0
60551,17099,"La Salle","IL","60551 Sheridan",41.529917,-88.680693,"",0,0,0
60552,17037,"DeKalb","IL","60552 Somonauk",41.637176,-88.682420,"",0,0,0
60553,17103,"Lee","IL","60553 Steward",41.809282,-89.024322,"",0,0,0
60554,17089,"Kane","IL","60554 Sugar Grove",41.772142,-88.438156,"",0,0,0
60555,17043,"DuPage","IL","60555 Warrenville",41.831317,-88.190333,"",0,0,0
60556,17037,"DeKalb","IL","60556 Waterman",41.767382,-88.773827,"",0,0,0
60557,17099,"La Salle","IL","60557 Wedron",41.435789,-88.773343,"61350",0,0,0
60558,17031,"Cook","IL","60558 Western Springs",41.804222,-87.897221,"",0,0,0
60559,17043,"DuPage","IL","60559 Westmont",41.791362,-87.979379,"",0,0,0
60560,17093,"Kendall","IL","60560 Yorkville",41.636633,-88.442176,"",0,0,0
60561,17043,"DuPage","IL","60561 Darien",41.745130,-87.984285,"",0,0,0
60563,17043,"DuPage","IL","60563 Naperville",41.790365,-88.172099,"",0,0,0
60564,17197,"Will","IL","60564 Naperville",41.712943,-88.196501,"",0,0,0
60565,17043,"DuPage","IL","60565 Naperville",41.733562,-88.128735,"",0,0,0
60566,17043,"DuPage","IL","60566 Naperville",41.769015,-88.186503,"60540",0,0,0
60567,17043,"DuPage","IL","60567 Naperville",41.769015,-88.186503,"60540",0,0,0
60568,17089,"Kane","IL","60568 Aurora",41.766611,-88.306713,"60505",0,0,0
60570,17031,"Cook","IL","60570 Hinsdale",41.847899,-87.902876,"60154",0,0,0
60572,17043,"DuPage","IL","60572 Aurora",41.763003,-88.224019,"60504",0,0,0
60585,17197,"Will","IL","60585 Plainfield",41.644653,-88.210362,"",0,0,0
60586,17197,"Will","IL","60586 Plainfield",41.559999,-88.213396,"",0,0,0
60597,17043,"DuPage","IL","60597 Fox Valley",41.763003,-88.224019,"60504",0,0,0
60598,17089,"Kane","IL","60598 Aurora",41.766611,-88.306713,"60505",0,0,0
60599,17043,"DuPage","IL","60599 Fox Valley",41.763003,-88.224019,"60504",0,0,0
60601,17031,"Cook","IL","60601 Chicago",41.885649,-87.622289,"",0,0,0
60602,17031,"Cook","IL","60602 Chicago",41.883213,-87.628662,"",0,0,0
60603,17031,"Cook","IL","60603 Chicago",41.880712,-87.629275,"",0,0,0
60604,17031,"Cook","IL","60604 Chicago",41.877516,-87.629700,"",0,0,0
60605,17031,"Cook","IL","60605 Chicago",41.869267,-87.626136,"",0,0,0
60606,17031,"Cook","IL","60606 Chicago",41.882303,-87.637028,"",0,0,0
60607,17031,"Cook","IL","60607 Chicago",41.874263,-87.657505,"",0,0,0
60608,17031,"Cook","IL","60608 Chicago",41.850743,-87.673342,"",0,0,0
60609,17031,"Cook","IL","60609 Chicago",41.806724,-87.660522,"",0,0,0
60610,17031,"Cook","IL","60610 Chicago",41.901525,-87.634390,"",0,0,0
60611,17031,"Cook","IL","60611 Chicago",41.894969,-87.621618,"",0,0,0
60612,17031,"Cook","IL","60612 Chicago",41.881166,-87.685984,"",0,0,0
60613,17031,"Cook","IL","60613 Chicago",41.953586,-87.653768,"",0,0,0
60614,17031,"Cook","IL","60614 Chicago",41.923642,-87.648311,"",0,0,0
60615,17031,"Cook","IL","60615 Chicago",41.800809,-87.599334,"",0,0,0
60616,17031,"Cook","IL","60616 Chicago",41.843154,-87.630129,"",0,0,0
60617,17031,"Cook","IL","60617 Chicago",41.724373,-87.556622,"",0,0,0
60618,17031,"Cook","IL","60618 Chicago",41.944759,-87.704210,"",0,0,0
60619,17031,"Cook","IL","60619 Chicago",41.743984,-87.607488,"",0,0,0
60620,17031,"Cook","IL","60620 Chicago",41.742820,-87.653458,"",0,0,0
60621,17031,"Cook","IL","60621 Chicago",41.773285,-87.642700,"",0,0,0
60622,17031,"Cook","IL","60622 Chicago",41.901327,-87.679005,"",0,0,0
60623,17031,"Cook","IL","60623 Chicago",41.849394,-87.718477,"",0,0,0
60624,17031,"Cook","IL","60624 Chicago",41.878825,-87.724124,"",0,0,0
60625,17031,"Cook","IL","60625 Chicago",41.972118,-87.703447,"",0,0,0
60626,17031,"Cook","IL","60626 Chicago",42.010346,-87.666433,"",0,0,0
60628,17031,"Cook","IL","60628 Chicago",41.693653,-87.623099,"",0,0,0
60629,17031,"Cook","IL","60629 Chicago",41.777886,-87.707366,"",0,0,0
60630,17031,"Cook","IL","60630 Chicago",41.972430,-87.759245,"",0,0,0
60631,17031,"Cook","IL","60631 Chicago",41.999453,-87.808085,"",0,0,0
60632,17031,"Cook","IL","60632 Chicago",41.809163,-87.706386,"",0,0,0
60633,17031,"Cook","IL","60633 Chicago",41.650064,-87.544562,"",0,0,0
60634,17031,"Cook","IL","60634 Chicago",41.945944,-87.799532,"",0,0,0
60636,17031,"Cook","IL","60636 Chicago",41.773903,-87.665761,"",0,0,0
60637,17031,"Cook","IL","60637 Chicago",41.781193,-87.604207,"",0,0,0
60638,17031,"Cook","IL","60638 Chicago",41.787230,-87.774216,"",0,0,0
60639,17031,"Cook","IL","60639 Chicago",41.922250,-87.754465,"",0,0,0
60640,17031,"Cook","IL","60640 Chicago",41.972602,-87.663928,"",0,0,0
60641,17031,"Cook","IL","60641 Chicago",41.945131,-87.748066,"",0,0,0
60643,17031,"Cook","IL","60643 Chicago",41.697760,-87.659384,"",0,0,0
60644,17031,"Cook","IL","60644 Chicago",41.884508,-87.758803,"",0,0,0
60645,17031,"Cook","IL","60645 Chicago",42.009541,-87.691453,"",0,0,0
60646,17031,"Cook","IL","60646 Chicago",41.994869,-87.758342,"",0,0,0
60647,17031,"Cook","IL","60647 Chicago",41.921701,-87.702198,"",0,0,0
60649,17031,"Cook","IL","60649 Chicago",41.761778,-87.568828,"",0,0,0
60651,17031,"Cook","IL","60651 Chicago",41.905308,-87.736024,"",0,0,0
60652,17031,"Cook","IL","60652 Chicago",41.744039,-87.716078,"",0,0,0
60653,17031,"Cook","IL","60653 Chicago",41.818554,-87.608133,"",0,0,0
60654,17031,"Cook","IL","60654 Chicago",41.887898,-87.635651,"",0,0,0
60655,17031,"Cook","IL","60655 Chicago",41.696101,-87.702562,"",0,0,0
60656,17031,"Cook","IL","60656 Chicago",41.975026,-87.820052,"",0,0,0
60657,17031,"Cook","IL","60657 Chicago",41.938965,-87.652760,"",0,0,0
60659,17031,"Cook","IL","60659 Chicago",41.992011,-87.696970,"",0,0,0
60660,17031,"Cook","IL","60660 Chicago",41.988944,-87.662182,"",0,0,0
60661,17031,"Cook","IL","60661 Chicago",41.881838,-87.643097,"",0,0,0
60663,17031,"Cook","IL","60663 Chicago",41.884477,-87.634361,"60606",0,0,0
60664,17031,"Cook","IL","60664 Chicago",41.884497,-87.631118,"60601",0,0,0
60666,17031,"Cook","IL","60666 Amf Ohare",41.984619,-87.885522,"",0,0,0
60668,17031,"Cook","IL","60668 Chicago",41.853366,-87.629782,"60616",0,0,0
60670,17031,"Cook","IL","60670 Chicago",41.881927,-87.629425,"60603",0,0,0
60673,17031,"Cook","IL","60673 Chicago",41.886729,-87.635450,"60606",0,0,0
60674,17031,"Cook","IL","60674 Chicago",41.879991,-87.632334,"60603",0,0,0
60675,17031,"Cook","IL","60675 Chicago",41.880989,-87.632319,"60603",0,0,0
60677,17031,"Cook","IL","60677 Chicago",41.881901,-87.636918,"60606",0,0,0
60678,17031,"Cook","IL","60678 Chicago",41.882727,-87.632415,"60602",0,0,0
60679,17031,"Cook","IL","60679 Chicago",41.878017,-87.638201,"60606",0,0,0
60680,17031,"Cook","IL","60680 Chicago",41.876835,-87.638170,"60606",0,0,0
60681,17031,"Cook","IL","60681 Chicago",41.884482,-87.623975,"60601",0,0,0
60682,17031,"Cook","IL","60682 Chicago",41.874408,-87.636465,"60607",0,0,0
60684,17031,"Cook","IL","60684 Chicago",41.879004,-87.636760,"60606",0,0,0
60685,17031,"Cook","IL","60685 Chicago",41.878284,-87.625682,"60604",0,0,0
60686,17031,"Cook","IL","60686 Chicago",41.879228,-87.686364,"60612",0,0,0
60687,17031,"Cook","IL","60687 Chicago",41.880532,-87.624421,"60603",0,0,0
60688,17031,"Cook","IL","60688 Chicago",41.957244,-87.914792,"60666",0,0,0
60689,17031,"Cook","IL","60689 Chicago",41.874426,-87.637379,"60607",0,0,0
60690,17031,"Cook","IL","60690 Chicago",41.879345,-87.630825,"60604",0,0,0
60691,17031,"Cook","IL","60691 Chicago",41.879345,-87.630825,"60604",0,0,0
60693,17031,"Cook","IL","60693 Chicago",41.878714,-87.632296,"60604",0,0,0
60694,17031,"Cook","IL","60694 Chicago",41.880739,-87.631314,"60603",0,0,0
60695,17031,"Cook","IL","60695 Chicago",41.874367,-87.637392,"60607",0,0,0
60696,17031,"Cook","IL","60696 Chicago",41.879179,-87.630789,"60604",0,0,0
60697,17031,"Cook","IL","60697 Chicago",41.878714,-87.632296,"60604",0,0,0
60699,17031,"Cook","IL","60699 Chicago",41.874417,-87.638361,"60607",0,0,0
60701,17031,"Cook","IL","60701 Chicago",41.954261,-87.893069,"60131",0,0,0
60706,17031,"Cook","IL","60706 Harwood Heights",41.962634,-87.818756,"",0,0,0
60707,17031,"Cook","IL","60707 Elmwood Park",41.921732,-87.808526,"",0,0,0
60712,17031,"Cook","IL","60712 Lincolnwood",42.004385,-87.735204,"",0,0,0
60714,17031,"Cook","IL","60714 Niles",42.034989,-87.818497,"",0,0,0
60803,17031,"Cook","IL","60803 Alsip",41.674005,-87.725579,"",0,0,0
60804,17031,"Cook","IL","60804 Cicero",41.847360,-87.759357,"",0,0,0
60805,17031,"Cook","IL","60805 Evergreen Park",41.717056,-87.705013,"",0,0,0
60827,17031,"Cook","IL","60827 Riverdale",41.646703,-87.637634,"",0,0,0
60901,17091,"Kankakee","IL","60901 Kankakee",41.116952,-87.869170,"",0,0,0
60910,17091,"Kankakee","IL","60910 Aroma Park",41.078589,-87.805844,"60964",0,0,0
60911,17075,"Iroquois","IL","60911 Ashkum",40.879585,-87.953533,"",0,0,0
60912,17075,"Iroquois","IL","60912 Beaverville",40.994486,-87.590755,"",0,0,0
60913,17091,"Kankakee","IL","60913 Bonfield",41.144204,-88.068670,"",0,0,0
60914,17091,"Kankakee","IL","60914 Bourbonnais",41.167549,-87.872289,"",0,0,0
60915,17091,"Kankakee","IL","60915 Bradley",41.144476,-87.855107,"",0,0,0
60917,17091,"Kankakee","IL","60917 Buckingham",41.054259,-88.188840,"",0,0,0
60918,17075,"Iroquois","IL","60918 Buckley",40.590291,-88.022533,"",0,0,0
60919,17053,"Ford","IL","60919 Cabery",40.981586,-88.189113,"",0,0,0
60920,17105,"Livingston","IL","60920 Campus",41.024484,-88.305683,"60420",0,0,0
60921,17105,"Livingston","IL","60921 Chatsworth",40.757917,-88.296964,"",0,0,0
60922,17091,"Kankakee","IL","60922 Chebanse",41.017198,-87.920378,"",0,0,0
60924,17075,"Iroquois","IL","60924 Cissna Park",40.564976,-87.891676,"",0,0,0
60926,17075,"Iroquois","IL","60926 Claytonville",40.567133,-87.822877,"60924",0,0,0
60927,17075,"Iroquois","IL","60927 Clifton",40.932023,-87.934808,"",0,0,0
60928,17075,"Iroquois","IL","60928 Crescent City",40.755783,-87.849991,"",0,0,0
60929,17105,"Livingston","IL","60929 Cullom",40.877093,-88.267585,"",0,0,0
60930,17075,"Iroquois","IL","60930 Danforth",40.839436,-88.000143,"",0,0,0
60931,17075,"Iroquois","IL","60931 Donovan",40.892060,-87.559618,"",0,0,0
60932,17183,"Vermilion","IL","60932 East Lynn",40.466769,-87.800502,"60960",0,0,0
60933,17053,"Ford","IL","60933 Elliott",40.463650,-88.272241,"60936",0,0,0
60934,17105,"Livingston","IL","60934 Emington",40.968644,-88.357737,"",0,0,0
60935,17091,"Kankakee","IL","60935 Essex",41.173739,-88.166202,"",0,0,0
60936,17053,"Ford","IL","60936 Gibson City",40.467548,-88.372394,"",0,0,0
60938,17075,"Iroquois","IL","60938 Gilman",40.769294,-87.993107,"",0,0,0
60939,17075,"Iroquois","IL","60939 Goodwine",40.567290,-87.784588,"60953",0,0,0
60940,17091,"Kankakee","IL","60940 Grant Park",41.241073,-87.636122,"",0,0,0
60941,17091,"Kankakee","IL","60941 Herscher",41.062325,-88.075867,"",0,0,0
60942,17183,"Vermilion","IL","60942 Hoopeston",40.465871,-87.668419,"",0,0,0
60944,17091,"Kankakee","IL","60944 Hopkins Park",41.066595,-87.620108,"60964",0,0,0
60945,17075,"Iroquois","IL","60945 Iroquois",40.827525,-87.583159,"60966",0,0,0
60946,17053,"Ford","IL","60946 Kempton",40.897583,-88.187034,"",0,0,0
60948,17075,"Iroquois","IL","60948 Loda",40.527752,-88.089201,"",0,0,0
60949,17019,"Champaign","IL","60949 Ludlow",40.385695,-88.110176,"",0,0,0
60950,17091,"Kankakee","IL","60950 Manteno",41.250640,-87.834429,"",0,0,0
60951,17075,"Iroquois","IL","60951 Martinton",40.926231,-87.769586,"",0,0,0
60952,17053,"Ford","IL","60952 Melvin",40.563858,-88.252944,"",0,0,0
60953,17075,"Iroquois","IL","60953 Milford",40.628220,-87.702378,"",0,0,0
60954,17091,"Kankakee","IL","60954 Momence",41.163027,-87.660505,"",0,0,0
60955,17075,"Iroquois","IL","60955 Onarga",40.715091,-88.007877,"",0,0,0
60956,17075,"Iroquois","IL","60956 Papineau",40.970026,-87.716437,"60964",0,0,0
60957,17053,"Ford","IL","60957 Paxton",40.458533,-88.102759,"",0,0,0
60959,17053,"Ford","IL","60959 Piper City",40.784567,-88.183308,"",0,0,0
60960,17183,"Vermilion","IL","60960 Rankin",40.443451,-87.869257,"",0,0,0
60961,17091,"Kankakee","IL","60961 Reddick",41.114383,-88.240898,"",0,0,0
60962,17053,"Ford","IL","60962 Roberts",40.614187,-88.176745,"",0,0,0
60963,17183,"Vermilion","IL","60963 Rossville",40.378159,-87.667955,"",0,0,0
60964,17091,"Kankakee","IL","60964 Saint Anne",41.065256,-87.682951,"",0,0,0
60966,17075,"Iroquois","IL","60966 Sheldon",40.761177,-87.575816,"",0,0,0
60967,17075,"Iroquois","IL","60967 Stockland",40.613465,-87.592930,"60953",0,0,0
60968,17075,"Iroquois","IL","60968 Thawville",40.670443,-88.083777,"",0,0,0
60969,17091,"Kankakee","IL","60969 Union Hill",41.108041,-88.146826,"60941",0,0,0
60970,17075,"Iroquois","IL","60970 Watseka",40.779668,-87.729492,"",0,0,0
60973,17075,"Iroquois","IL","60973 Wellington",40.535990,-87.674045,"",0,0,0
60974,17075,"Iroquois","IL","60974 Woodland",40.714678,-87.731212,"60970",0,0,0
61001,17085,"Jo Daviess","IL","61001 Apple River",42.456222,-90.113227,"",0,0,0
61006,17103,"Lee","IL","61006 Ashton",41.852835,-89.193753,"",0,0,0
61007,17177,"Stephenson","IL","61007 Baileyville",42.200714,-89.600737,"",0,0,0
61008,17007,"Boone","IL","61008 Belvidere",42.261167,-88.853122,"",0,0,0
61010,17141,"Ogle","IL","61010 Byron",42.131314,-89.257774,"",0,0,0
61011,17007,"Boone","IL","61011 Caledonia",42.370731,-88.896702,"",0,0,0
61012,17007,"Boone","IL","61012 Capron",42.399403,-88.740706,"",0,0,0
61013,17177,"Stephenson","IL","61013 Cedarville",42.374223,-89.632981,"61032",0,0,0
61014,17015,"Carroll","IL","61014 Chadwick",41.967961,-89.890032,"",0,0,0
61015,17141,"Ogle","IL","61015 Chana",41.997191,-89.206039,"",0,0,0
61016,17201,"Winnebago","IL","61016 Cherry Valley",42.230999,-88.963462,"",0,0,0
61018,17177,"Stephenson","IL","61018 Dakota",42.410554,-89.558386,"",0,0,0
61019,17177,"Stephenson","IL","61019 Davis",42.442638,-89.401120,"",0,0,0
61020,17141,"Ogle","IL","61020 Davis Junction",42.106155,-89.076251,"",0,0,0
61021,17103,"Lee","IL","61021 Dixon",41.841547,-89.486902,"",0,0,0
61024,17201,"Winnebago","IL","61024 Durand",42.434534,-89.322174,"",0,0,0
61025,17085,"Jo Daviess","IL","61025 East Dubuque",42.485790,-90.609367,"",0,0,0
61027,17177,"Stephenson","IL","61027 Eleroy",42.331058,-89.762667,"61048",0,0,0
61028,17085,"Jo Daviess","IL","61028 Elizabeth",42.266679,-90.138861,"",0,0,0
61030,17141,"Ogle","IL","61030 Forreston",42.117263,-89.582809,"",0,0,0
61031,17103,"Lee","IL","61031 Franklin Grove",41.841402,-89.312298,"",0,0,0
61032,17177,"Stephenson","IL","61032 Freeport",42.301084,-89.634997,"",0,0,0
61036,17085,"Jo Daviess","IL","61036 Galena",42.415441,-90.428563,"",0,0,0
61037,17195,"Whiteside","IL","61037 Galt",41.789463,-89.762449,"61081",0,0,0
61038,17007,"Boone","IL","61038 Garden Prairie",42.262478,-88.739276,"",0,0,0
61039,17177,"Stephenson","IL","61039 German Valley",42.206604,-89.473824,"",0,0,0
61041,17085,"Jo Daviess","IL","61041 Hanover",42.273189,-90.299600,"",0,0,0
61042,17103,"Lee","IL","61042 Harmon",41.693072,-89.555223,"",0,0,0
61043,17141,"Ogle","IL","61043 Holcomb",42.063697,-89.096774,"61020",0,0,0
61044,17177,"Stephenson","IL","61044 Kent",42.318385,-89.902474,"",0,0,0
61046,17015,"Carroll","IL","61046 Lanark",42.101774,-89.831699,"",0,0,0
61047,17141,"Ogle","IL","61047 Leaf River",42.153065,-89.404509,"",0,0,0
61048,17177,"Stephenson","IL","61048 Lena",42.385009,-89.826131,"",0,0,0
61049,17141,"Ogle","IL","61049 Lindenwood",42.043408,-89.021125,"",0,0,0
61050,17177,"Stephenson","IL","61050 MC Connell",42.443400,-89.731844,"",0,0,0
61051,17015,"Carroll","IL","61051 Milledgeville",41.988776,-89.760521,"",0,0,0
61052,17141,"Ogle","IL","61052 Monroe Center",42.111366,-88.997697,"",0,0,0
61053,17015,"Carroll","IL","61053 Mount Carroll",42.098890,-89.977748,"",0,0,0
61054,17141,"Ogle","IL","61054 Mount Morris",42.047455,-89.442693,"",0,0,0
61057,17103,"Lee","IL","61057 Nachusa",41.831452,-89.390383,"61021",0,0,0
61058,17103,"Lee","IL","61058 Nelson",41.841681,-89.486418,"61021",0,0,0
61059,17085,"Jo Daviess","IL","61059 Nora",42.456329,-89.944824,"61087",0,0,0
61060,17177,"Stephenson","IL","61060 Orangeville",42.475806,-89.611047,"",0,0,0
61061,17141,"Ogle","IL","61061 Oregon",42.015365,-89.337400,"",0,0,0
61062,17177,"Stephenson","IL","61062 Pearl City",42.234944,-89.844909,"",0,0,0
61063,17201,"Winnebago","IL","61063 Pecatonica",42.313934,-89.359153,"",0,0,0
61064,17141,"Ogle","IL","61064 Polo",41.986646,-89.578793,"",0,0,0
61065,17007,"Boone","IL","61065 Poplar Grove",42.356285,-88.862210,"",0,0,0
61067,17177,"Stephenson","IL","61067 Ridott",42.304014,-89.475521,"",0,0,0
61068,17141,"Ogle","IL","61068 Rochelle",41.928922,-89.062802,"",0,0,0
61070,17177,"Stephenson","IL","61070 Rock City",42.414387,-89.473560,"",0,0,0
61071,17195,"Whiteside","IL","61071 Rock Falls",41.765948,-89.693905,"",0,0,0
61072,17201,"Winnebago","IL","61072 Rockton",42.453539,-89.077937,"",0,0,0
61073,17201,"Winnebago","IL","61073 Roscoe",42.415595,-89.007932,"",0,0,0
61074,17015,"Carroll","IL","61074 Savanna",42.091150,-90.141318,"",0,0,0
61075,17085,"Jo Daviess","IL","61075 Scales Mound",42.451238,-90.269878,"",0,0,0
61077,17201,"Winnebago","IL","61077 Seward",42.236034,-89.357664,"61063",0,0,0
61078,17015,"Carroll","IL","61078 Shannon",42.170672,-89.765548,"",0,0,0
61079,17201,"Winnebago","IL","61079 Shirland",42.441574,-89.198168,"61072",0,0,0
61080,17201,"Winnebago","IL","61080 South Beloit",42.488968,-89.028287,"",0,0,0
61081,17195,"Whiteside","IL","61081 Sterling",41.804055,-89.707321,"",0,0,0
61084,17141,"Ogle","IL","61084 Stillman Valley",42.145308,-89.198015,"",0,0,0
61085,17085,"Jo Daviess","IL","61085 Stockton",42.348264,-90.008659,"",0,0,0
61087,17085,"Jo Daviess","IL","61087 Warren",42.480742,-89.972462,"",0,0,0
61088,17201,"Winnebago","IL","61088 Winnebago",42.279817,-89.242037,"",0,0,0
61089,17177,"Stephenson","IL","61089 Winslow",42.471639,-89.814105,"",0,0,0
61091,17141,"Ogle","IL","61091 Woosung",41.905852,-89.543246,"61064",0,0,0
61101,17201,"Winnebago","IL","61101 Rockford",42.300326,-89.109811,"",0,0,0
61102,17201,"Winnebago","IL","61102 Rockford",42.248831,-89.118986,"",0,0,0
61103,17201,"Winnebago","IL","61103 Rockford",42.304916,-89.084262,"",0,0,0
61104,17201,"Winnebago","IL","61104 Rockford",42.254791,-89.080911,"",0,0,0
61105,17201,"Winnebago","IL","61105 Rockford",42.268238,-89.096437,"61101",0,0,0
61106,17201,"Winnebago","IL","61106 Rockford",42.252179,-89.079928,"61104",0,0,0
61107,17201,"Winnebago","IL","61107 Rockford",42.279015,-89.034506,"",0,0,0
61108,17201,"Winnebago","IL","61108 Rockford",42.253301,-89.019340,"",0,0,0
61109,17201,"Winnebago","IL","61109 Rockford",42.221562,-89.047845,"",0,0,0
61110,17201,"Winnebago","IL","61110 Rockford",42.266763,-89.081945,"61104",0,0,0
61111,17201,"Winnebago","IL","61111 Loves Park",42.324267,-89.024897,"",0,0,0
61112,17201,"Winnebago","IL","61112 Rockford",42.247549,-88.975938,"",0,0,0
61114,17201,"Winnebago","IL","61114 Rockford",42.310769,-89.004443,"",0,0,0
61115,17201,"Winnebago","IL","61115 Machesney Park",42.355369,-89.038825,"",0,0,0
61125,17201,"Winnebago","IL","61125 Rockford",42.238617,-89.000660,"61108",0,0,0
61126,17201,"Winnebago","IL","61126 Rockford",42.325368,-89.032768,"61111",0,0,0
61130,17201,"Winnebago","IL","61130 Loves Park",42.325368,-89.032768,"61111",0,0,0
61131,17201,"Winnebago","IL","61131 Loves Park",42.325368,-89.032768,"61111",0,0,0
61132,17201,"Winnebago","IL","61132 Loves Park",42.325368,-89.032768,"61111",0,0,0
61201,17161,"Rock Island","IL","61201 Rock Island",41.484675,-90.567075,"",0,0,0
61204,17161,"Rock Island","IL","61204 Rock Island",41.484176,-90.582712,"61201",0,0,0
61230,17195,"Whiteside","IL","61230 Albany",41.743819,-90.211425,"",0,0,0
61231,17131,"Mercer","IL","61231 Aledo",41.205030,-90.743726,"",0,0,0
61232,17161,"Rock Island","IL","61232 Andalusia",41.443400,-90.718919,"61284",0,0,0
61233,17073,"Henry","IL","61233 Andover",41.293752,-90.292083,"61238",0,0,0
61234,17073,"Henry","IL","61234 Annawan",41.412333,-89.934084,"",0,0,0
61235,17073,"Henry","IL","61235 Atkinson",41.397402,-90.030052,"",0,0,0
61236,17161,"Rock Island","IL","61236 Barstow",41.518238,-90.357132,"61244",0,0,0
61237,17161,"Rock Island","IL","61237 Buffalo Prairie",41.338513,-90.850067,"61259",0,0,0
61238,17073,"Henry","IL","61238 Cambridge",41.305008,-90.191226,"",0,0,0
61239,17161,"Rock Island","IL","61239 Carbon Cliff",41.496006,-90.390634,"61282",0,0,0
61240,17161,"Rock Island","IL","61240 Coal Valley",41.444494,-90.453989,"",0,0,0
61241,17073,"Henry","IL","61241 Colona",41.486631,-90.330282,"",0,0,0
61242,17161,"Rock Island","IL","61242 Cordova",41.705399,-90.276222,"",0,0,0
61243,17195,"Whiteside","IL","61243 Deer Grove",41.617594,-89.689498,"",0,0,0
61244,17161,"Rock Island","IL","61244 East Moline",41.508313,-90.436013,"",0,0,0
61250,17195,"Whiteside","IL","61250 Erie",41.687477,-90.095918,"",0,0,0
61251,17195,"Whiteside","IL","61251 Fenton",41.728829,-90.068090,"",0,0,0
61252,17195,"Whiteside","IL","61252 Fulton",41.862918,-90.157649,"",0,0,0
61254,17073,"Henry","IL","61254 Geneseo",41.458390,-90.160450,"",0,0,0
61256,17161,"Rock Island","IL","61256 Hampton",41.552620,-90.402033,"",0,0,0
61257,17161,"Rock Island","IL","61257 Hillsdale",41.598938,-90.227873,"",0,0,0
61258,17073,"Henry","IL","61258 Hooppole",41.521948,-89.914843,"61277",0,0,0
61259,17161,"Rock Island","IL","61259 Illinois City",41.395226,-90.918663,"",0,0,0
61260,17131,"Mercer","IL","61260 Joy",41.259676,-90.880732,"",0,0,0
61261,17195,"Whiteside","IL","61261 Lyndon",41.728172,-89.920394,"",0,0,0
61262,17073,"Henry","IL","61262 Lynn Center",41.281244,-90.358711,"",0,0,0
61263,17131,"Mercer","IL","61263 Matherville",41.259221,-90.604967,"",0,0,0
61264,17161,"Rock Island","IL","61264 Milan",41.413704,-90.563389,"",0,0,0
61265,17161,"Rock Island","IL","61265 Moline",41.487426,-90.493579,"",0,0,0
61266,17161,"Rock Island","IL","61266 Moline",41.507151,-90.513858,"61265",0,0,0
61270,17195,"Whiteside","IL","61270 Morrison",41.811672,-89.960466,"",0,0,0
61272,17131,"Mercer","IL","61272 New Boston",41.231248,-90.998633,"",0,0,0
61273,17073,"Henry","IL","61273 Orion",41.364946,-90.392256,"",0,0,0
61274,17073,"Henry","IL","61274 Osco",41.375216,-90.260988,"",0,0,0
61275,17161,"Rock Island","IL","61275 Port Byron",41.601245,-90.291739,"",0,0,0
61276,17131,"Mercer","IL","61276 Preemption",41.313120,-90.578471,"61281",0,0,0
61277,17195,"Whiteside","IL","61277 Prophetstown",41.668896,-89.936020,"",0,0,0
61278,17161,"Rock Island","IL","61278 Rapids City",41.580407,-90.349832,"61275",0,0,0
61279,17131,"Mercer","IL","61279 Reynolds",41.317894,-90.744823,"",0,0,0
61281,17131,"Mercer","IL","61281 Sherrard",41.296561,-90.531518,"",0,0,0
61282,17161,"Rock Island","IL","61282 Silvis",41.499274,-90.415556,"",0,0,0
61283,17195,"Whiteside","IL","61283 Tampico",41.598512,-89.824183,"",0,0,0
61284,17161,"Rock Island","IL","61284 Taylor Ridge",41.415973,-90.734490,"",0,0,0
61285,17015,"Carroll","IL","61285 Thomson",41.978689,-90.037854,"",0,0,0
61299,17161,"Rock Island","IL","61299 Rock Island",41.517874,-90.530394,"61201",0,0,0
61301,17099,"La Salle","IL","61301 La Salle",41.340095,-89.092901,"",0,0,0
61310,17103,"Lee","IL","61310 Amboy",41.714646,-89.330838,"",0,0,0
61311,17105,"Livingston","IL","61311 Ancona",41.046187,-88.841055,"",0,0,0
61312,17011,"Bureau","IL","61312 Arlington",41.431917,-89.238961,"",0,0,0
61313,17105,"Livingston","IL","61313 Blackstone",41.091725,-88.654669,"",0,0,0
61314,17011,"Bureau","IL","61314 Buda",41.302333,-89.664263,"",0,0,0
61315,17011,"Bureau","IL","61315 Bureau",41.290696,-89.370101,"61356",0,0,0
61316,17099,"La Salle","IL","61316 Cedar Point",41.263271,-89.125791,"61354",0,0,0
61317,17011,"Bureau","IL","61317 Cherry",41.427140,-89.213028,"61312",0,0,0
61318,17103,"Lee","IL","61318 Compton",41.716137,-89.072867,"",0,0,0
61319,17105,"Livingston","IL","61319 Cornell",40.992763,-88.729322,"",0,0,0
61320,17011,"Bureau","IL","61320 Dalzell",41.355622,-89.169986,"",0,0,0
61321,17099,"La Salle","IL","61321 Dana",40.970928,-88.979330,"",0,0,0
61322,17011,"Bureau","IL","61322 Depue",41.324753,-89.311072,"61356",0,0,0
61323,17011,"Bureau","IL","61323 Dover",41.436144,-89.398237,"61356",0,0,0
61324,17103,"Lee","IL","61324 Eldena",41.772681,-89.412307,"61021",0,0,0
61325,17099,"La Salle","IL","61325 Grand Ridge",41.237268,-88.817941,"",0,0,0
61326,17155,"Putnam","IL","61326 Granville",41.258200,-89.219631,"",0,0,0
61327,17155,"Putnam","IL","61327 Hennepin",41.250635,-89.336703,"",0,0,0
61328,17011,"Bureau","IL","61328 Kasbeer",41.503990,-89.466416,"61349",0,0,0
61329,17011,"Bureau","IL","61329 Ladd",41.378937,-89.206535,"",0,0,0
61330,17011,"Bureau","IL","61330 La Moille",41.533625,-89.278777,"",0,0,0
61331,17103,"Lee","IL","61331 Lee Center",41.747843,-89.279464,"61310",0,0,0
61332,17099,"La Salle","IL","61332 Leonore",41.188818,-88.980624,"61370",0,0,0
61333,17105,"Livingston","IL","61333 Long Point",41.001262,-88.894706,"",0,0,0
61334,17099,"La Salle","IL","61334 Lostant",41.148079,-89.079557,"",0,0,0
61335,17155,"Putnam","IL","61335 MC Nabb",41.179023,-89.211685,"",0,0,0
61336,17155,"Putnam","IL","61336 Magnolia",41.114584,-89.196085,"",0,0,0
61337,17011,"Bureau","IL","61337 Malden",41.432054,-89.333706,"",0,0,0
61338,17011,"Bureau","IL","61338 Manlius",41.456259,-89.667318,"61361",0,0,0
61340,17155,"Putnam","IL","61340 Mark",41.264465,-89.250022,"61326",0,0,0
61341,17099,"La Salle","IL","61341 Marseilles",41.333333,-88.703510,"",0,0,0
61342,17099,"La Salle","IL","61342 Mendota",41.543952,-89.116947,"",0,0,0
61344,17011,"Bureau","IL","61344 Mineral",41.385614,-89.854343,"",0,0,0
61345,17011,"Bureau","IL","61345 Neponset",41.282674,-89.777788,"",0,0,0
61346,17011,"Bureau","IL","61346 New Bedford",41.513533,-89.720941,"",0,0,0
61348,17099,"La Salle","IL","61348 Oglesby",41.295100,-89.062979,"",0,0,0
61349,17011,"Bureau","IL","61349 Ohio",41.584869,-89.452154,"",0,0,0
61350,17099,"La Salle","IL","61350 Ottawa",41.348878,-88.846108,"",0,0,0
61353,17103,"Lee","IL","61353 Paw Paw",41.690814,-88.990400,"",0,0,0
61354,17099,"La Salle","IL","61354 Peru",41.331296,-89.125073,"",0,0,0
61356,17011,"Bureau","IL","61356 Princeton",41.368047,-89.457491,"",0,0,0
61358,17099,"La Salle","IL","61358 Rutland",40.987048,-89.038917,"",0,0,0
61359,17011,"Bureau","IL","61359 Seatonville",41.364801,-89.277543,"61356",0,0,0
61360,17099,"La Salle","IL","61360 Seneca",41.392077,-88.613667,"",0,0,0
61361,17011,"Bureau","IL","61361 Sheffield",41.422383,-89.732647,"",0,0,0
61362,17011,"Bureau","IL","61362 Spring Valley",41.327156,-89.206637,"",0,0,0
61363,17155,"Putnam","IL","61363 Standard",41.257605,-89.182282,"61326",0,0,0
61364,17099,"La Salle","IL","61364 Streator",41.129481,-88.829138,"",0,0,0
61367,17103,"Lee","IL","61367 Sublette",41.628441,-89.271132,"",0,0,0
61368,17011,"Bureau","IL","61368 Tiskilwa",41.280097,-89.524365,"",0,0,0
61369,17123,"Marshall","IL","61369 Toluca",40.993547,-89.161000,"",0,0,0
61370,17099,"La Salle","IL","61370 Tonica",41.206969,-89.051527,"",0,0,0
61371,17099,"La Salle","IL","61371 Triumph",41.498630,-89.021700,"61342",0,0,0
61372,17099,"La Salle","IL","61372 Troy Grove",41.467786,-89.083029,"61342",0,0,0
61373,17099,"La Salle","IL","61373 Utica",41.382147,-88.982101,"",0,0,0
61374,17011,"Bureau","IL","61374 Van Orin",41.551805,-89.353981,"61330",0,0,0
61375,17123,"Marshall","IL","61375 Varna",41.027340,-89.267657,"",0,0,0
61376,17011,"Bureau","IL","61376 Walnut",41.550664,-89.615528,"",0,0,0
61377,17123,"Marshall","IL","61377 Wenona",41.057186,-89.048437,"",0,0,0
61378,17103,"Lee","IL","61378 West Brooklyn",41.715630,-89.159056,"",0,0,0
61379,17011,"Bureau","IL","61379 Wyanet",41.356596,-89.581988,"",0,0,0
61401,17095,"Knox","IL","61401 Galesburg",40.945843,-90.369582,"",0,0,0
61402,17095,"Knox","IL","61402 Galesburg",40.947499,-90.362965,"61401",0,0,0
61410,17095,"Knox","IL","61410 Abingdon",40.802409,-90.399338,"",0,0,0
61411,17109,"McDonough","IL","61411 Adair",40.395323,-90.506151,"",0,0,0
61412,17187,"Warren","IL","61412 Alexis",41.062668,-90.559462,"",0,0,0
61413,17073,"Henry","IL","61413 Alpha",41.195086,-90.374664,"",0,0,0
61414,17095,"Knox","IL","61414 Altona",41.114206,-90.145994,"",0,0,0
61415,17187,"Warren","IL","61415 Avon",40.678489,-90.521693,"",0,0,0
61416,17109,"McDonough","IL","61416 Bardolph",40.495157,-90.564646,"61455",0,0,0
61417,17187,"Warren","IL","61417 Berwick",40.773992,-90.532010,"",0,0,0
61418,17071,"Henderson","IL","61418 Biggsville",40.852069,-90.866929,"",0,0,0
61419,17073,"Henry","IL","61419 Bishop Hill",41.200310,-90.118775,"61434",0,0,0
61420,17109,"McDonough","IL","61420 Blandinsville",40.522836,-90.885752,"",0,0,0
61421,17011,"Bureau","IL","61421 Bradford",41.169741,-89.582508,"",0,0,0
61422,17109,"McDonough","IL","61422 Bushnell",40.553865,-90.514418,"",0,0,0
61423,17187,"Warren","IL","61423 Cameron",40.882279,-90.505305,"",0,0,0
61424,17123,"Marshall","IL","61424 Camp Grove",41.077027,-89.633208,"61421",0,0,0
61425,17071,"Henderson","IL","61425 Carman",40.764917,-91.049735,"",0,0,0
61426,17175,"Stark","IL","61426 Castleton",41.117097,-89.706405,"61421",0,0,0
61427,17057,"Fulton","IL","61427 Cuba",40.523952,-90.177804,"",0,0,0
61428,17095,"Knox","IL","61428 Dahinda",40.953206,-90.118681,"",0,0,0
61430,17095,"Knox","IL","61430 East Galesburg",40.944429,-90.307998,"61448",0,0,0
61431,17057,"Fulton","IL","61431 Ellisville",40.587793,-90.271370,"",0,0,0
61432,17057,"Fulton","IL","61432 Fairview",40.656379,-90.139573,"",0,0,0
61433,17057,"Fulton","IL","61433 Fiatt",40.611034,-90.187690,"",0,0,0
61434,17073,"Henry","IL","61434 Galva",41.169267,-90.043337,"",0,0,0
61435,17187,"Warren","IL","61435 Gerlaw",41.004003,-90.591126,"",0,0,0
61436,17095,"Knox","IL","61436 Gilson",40.866107,-90.196297,"",0,0,0
61437,17071,"Henderson","IL","61437 Gladstone",40.847389,-90.979076,"",0,0,0
61438,17109,"McDonough","IL","61438 Good Hope",40.575332,-90.637309,"",0,0,0
61439,17095,"Knox","IL","61439 Henderson",41.024741,-90.356689,"61401",0,0,0
61440,17109,"McDonough","IL","61440 Industry",40.322505,-90.603810,"",0,0,0
61441,17057,"Fulton","IL","61441 Ipava",40.334625,-90.285459,"",0,0,0
61442,17131,"Mercer","IL","61442 Keithsburg",41.110285,-90.923039,"",0,0,0
61443,17073,"Henry","IL","61443 Kewanee",41.243132,-89.926383,"",0,0,0
61447,17187,"Warren","IL","61447 Kirkwood",40.864061,-90.722475,"",0,0,0
61448,17095,"Knox","IL","61448 Knoxville",40.904993,-90.281347,"",0,0,0
61449,17095,"Knox","IL","61449 La Fayette",41.091731,-90.003831,"",0,0,0
61450,17067,"Hancock","IL","61450 La Harpe",40.560130,-90.973164,"",0,0,0
61451,17143,"Peoria","IL","61451 Laura",40.945794,-89.942267,"",0,0,0
61452,17109,"McDonough","IL","61452 Littleton",40.278549,-90.640398,"",0,0,0
61453,17187,"Warren","IL","61453 Little York",41.005941,-90.746408,"",0,0,0
61454,17071,"Henderson","IL","61454 Lomax",40.677975,-91.002354,"",0,0,0
61455,17109,"McDonough","IL","61455 Macomb",40.462455,-90.677342,"",0,0,0
61458,17095,"Knox","IL","61458 Maquon",40.775497,-90.214577,"",0,0,0
61459,17057,"Fulton","IL","61459 Marietta",40.503490,-90.428342,"",0,0,0
61460,17071,"Henderson","IL","61460 Media",40.763296,-90.846391,"",0,0,0
61462,17187,"Warren","IL","61462 Monmouth",40.917048,-90.638384,"",0,0,0
61465,17131,"Mercer","IL","61465 New Windsor",41.196248,-90.489347,"",0,0,0
61466,17131,"Mercer","IL","61466 North Henderson",41.107659,-90.478601,"",0,0,0
61467,17095,"Knox","IL","61467 Oneida",41.068229,-90.248908,"",0,0,0
61468,17073,"Henry","IL","61468 Ophiem",41.252478,-90.392125,"61262",0,0,0
61469,17071,"Henderson","IL","61469 Oquawka",40.942471,-90.877570,"",0,0,0
61470,17109,"McDonough","IL","61470 Prairie City",40.616264,-90.465189,"",0,0,0
61471,17071,"Henderson","IL","61471 Raritan",40.678545,-90.846239,"",0,0,0
61472,17095,"Knox","IL","61472 Rio",41.100862,-90.400026,"",0,0,0
61473,17187,"Warren","IL","61473 Roseville",40.732614,-90.684468,"",0,0,0
61474,17095,"Knox","IL","61474 Saint Augustine",40.737540,-90.386436,"",0,0,0
61475,17109,"McDonough","IL","61475 Sciota",40.549252,-90.751669,"",0,0,0
61476,17131,"Mercer","IL","61476 Seaton",41.108090,-90.824044,"",0,0,0
61477,17057,"Fulton","IL","61477 Smithfield",40.502542,-90.314227,"",0,0,0
61478,17187,"Warren","IL","61478 Smithshire",40.749891,-90.759784,"",0,0,0
61479,17175,"Stark","IL","61479 Speer",41.054992,-89.808464,"",0,0,0
61480,17071,"Henderson","IL","61480 Stronghurst",40.746116,-90.911749,"",0,0,0
61482,17057,"Fulton","IL","61482 Table Grove",40.403070,-90.418754,"",0,0,0
61483,17175,"Stark","IL","61483 Toulon",41.096818,-89.870496,"",0,0,0
61484,17109,"McDonough","IL","61484 Vermont",40.299538,-90.488466,"",0,0,0
61485,17095,"Knox","IL","61485 Victoria",41.006774,-90.098274,"",0,0,0
61486,17131,"Mercer","IL","61486 Viola",41.201679,-90.576328,"",0,0,0
61488,17095,"Knox","IL","61488 Wataga",41.024621,-90.314628,"",0,0,0
61489,17095,"Knox","IL","61489 Williamsfield",40.962109,-90.013944,"",0,0,0
61490,17073,"Henry","IL","61490 Woodhull",41.192857,-90.247085,"",0,0,0
61491,17175,"Stark","IL","61491 Wyoming",41.065664,-89.775001,"",0,0,0
61501,17057,"Fulton","IL","61501 Astoria",40.247125,-90.300746,"",0,0,0
61516,17203,"Woodford","IL","61516 Benson",40.853287,-89.148189,"",0,0,0
61517,17143,"Peoria","IL","61517 Brimfield",40.819890,-89.839259,"",0,0,0
61519,17057,"Fulton","IL","61519 Bryant",40.475537,-90.054826,"",0,0,0
61520,17057,"Fulton","IL","61520 Canton",40.560609,-90.027250,"",0,0,0
61523,17143,"Peoria","IL","61523 Chillicothe",40.909289,-89.507252,"",0,0,0
61524,17057,"Fulton","IL","61524 Dunfermline",40.476769,-90.011220,"",0,0,0
61525,17143,"Peoria","IL","61525 Dunlap",40.842555,-89.635505,"",0,0,0
61526,17143,"Peoria","IL","61526 Edelstein",40.924605,-89.639113,"",0,0,0
61528,17143,"Peoria","IL","61528 Edwards",40.778319,-89.727529,"",0,0,0
61529,17143,"Peoria","IL","61529 Elmwood",40.740682,-89.909089,"",0,0,0
61530,17203,"Woodford","IL","61530 Eureka",40.714433,-89.268968,"",0,0,0
61531,17057,"Fulton","IL","61531 Farmington",40.695359,-90.005630,"",0,0,0
61532,17125,"Mason","IL","61532 Forest City",40.376385,-89.819203,"",0,0,0
61533,17143,"Peoria","IL","61533 Glasford",40.596102,-89.852063,"",0,0,0
61534,17179,"Tazewell","IL","61534 Green Valley",40.418560,-89.652752,"",0,0,0
61535,17179,"Tazewell","IL","61535 Groveland",40.571635,-89.532575,"",0,0,0
61536,17143,"Peoria","IL","61536 Hanna City",40.694557,-89.791687,"",0,0,0
61537,17123,"Marshall","IL","61537 Henry",41.109821,-89.361826,"",0,0,0
61539,17143,"Peoria","IL","61539 Kingston Mines",40.558195,-89.775189,"61547",0,0,0
61540,17123,"Marshall","IL","61540 Lacon",41.018461,-89.405158,"",0,0,0
61541,17123,"Marshall","IL","61541 La Rose",40.983891,-89.234288,"61375",0,0,0
61542,17057,"Fulton","IL","61542 Lewistown",40.390143,-90.155165,"",0,0,0
61543,17057,"Fulton","IL","61543 Liverpool",40.405985,-90.003804,"",0,0,0
61544,17057,"Fulton","IL","61544 London Mills",40.695424,-90.229646,"",0,0,0
61545,17203,"Woodford","IL","61545 Lowpoint",40.872223,-89.344611,"",0,0,0
61546,17179,"Tazewell","IL","61546 Manito",40.463475,-89.818508,"",0,0,0
61547,17143,"Peoria","IL","61547 Mapleton",40.606452,-89.756159,"",0,0,0
61548,17203,"Woodford","IL","61548 Metamora",40.769057,-89.432318,"",0,0,0
61550,17179,"Tazewell","IL","61550 Morton",40.615088,-89.465834,"",0,0,0
61552,17143,"Peoria","IL","61552 Mossville",40.820510,-89.568686,"",0,0,0
61553,17057,"Fulton","IL","61553 Norris",40.625804,-90.031981,"61531",0,0,0
61554,17179,"Tazewell","IL","61554 Pekin",40.569747,-89.631442,"",0,0,0
61555,17179,"Tazewell","IL","61555 Pekin",40.567401,-89.645023,"61554",0,0,0
61558,17179,"Tazewell","IL","61558 Pekin",40.553473,-89.609425,"61554",0,0,0
61559,17143,"Peoria","IL","61559 Princeville",40.934694,-89.793997,"",0,0,0
61560,17155,"Putnam","IL","61560 Putnam",41.200683,-89.434620,"",0,0,0
61561,17203,"Woodford","IL","61561 Roanoke",40.793519,-89.203925,"",0,0,0
61562,17143,"Peoria","IL","61562 Rome",40.878648,-89.502597,"61523",0,0,0
61563,17057,"Fulton","IL","61563 Saint David",40.514085,-90.090534,"",0,0,0
61564,17179,"Tazewell","IL","61564 South Pekin",40.567401,-89.645023,"61554",0,0,0
61565,17123,"Marshall","IL","61565 Sparland",41.031407,-89.520348,"",0,0,0
61567,17125,"Mason","IL","61567 Topeka",40.372989,-89.894686,"",0,0,0
61568,17179,"Tazewell","IL","61568 Tremont",40.525201,-89.489773,"",0,0,0
61569,17143,"Peoria","IL","61569 Trivoli",40.676785,-89.891351,"",0,0,0
61570,17203,"Woodford","IL","61570 Washburn",40.917323,-89.299237,"",0,0,0
61571,17179,"Tazewell","IL","61571 Washington",40.698249,-89.435597,"",0,0,0
61572,17095,"Knox","IL","61572 Yates City",40.804025,-90.036568,"",0,0,0
61601,17143,"Peoria","IL","61601 Peoria",40.685601,-89.595443,"61602",0,0,0
61602,17143,"Peoria","IL","61602 Peoria",40.692610,-89.590947,"",0,0,0
61603,17143,"Peoria","IL","61603 Peoria",40.712836,-89.580019,"",0,0,0
61604,17143,"Peoria","IL","61604 Peoria",40.707064,-89.633763,"",0,0,0
61605,17143,"Peoria","IL","61605 Peoria",40.680493,-89.628899,"",0,0,0
61606,17143,"Peoria","IL","61606 Peoria",40.698777,-89.611796,"",0,0,0
61607,17143,"Peoria","IL","61607 Peoria",40.645166,-89.672475,"",0,0,0
61610,17179,"Tazewell","IL","61610 Creve Coeur",40.640946,-89.586659,"",0,0,0
61611,17179,"Tazewell","IL","61611 East Peoria",40.680288,-89.535734,"",0,0,0
61612,17143,"Peoria","IL","61612 Peoria",40.746757,-89.603058,"61614",0,0,0
61613,17143,"Peoria","IL","61613 Peoria",40.742022,-89.627422,"61615",0,0,0
61614,17143,"Peoria","IL","61614 Peoria",40.754274,-89.613394,"",0,0,0
61615,17143,"Peoria","IL","61615 Peoria",40.764795,-89.650696,"",0,0,0
61616,17143,"Peoria","IL","61616 Peoria Heights",40.742656,-89.572175,"",0,0,0
61625,17143,"Peoria","IL","61625 Peoria",40.698093,-89.616000,"",0,0,0
61629,17143,"Peoria","IL","61629 Peoria",40.691738,-89.589346,"61602",0,0,0
61630,17143,"Peoria","IL","61630 Peoria",40.681094,-89.603353,"61602",0,0,0
61633,17143,"Peoria","IL","61633 Peoria",40.730851,-89.603084,"61604",0,0,0
61634,17143,"Peoria","IL","61634 Peoria",40.689408,-89.592207,"61602",0,0,0
61635,17179,"Tazewell","IL","61635 Peoria",40.704668,-89.521896,"",0,0,0
61636,17143,"Peoria","IL","61636 Peoria",40.699668,-89.595081,"61602",0,0,0
61637,17143,"Peoria","IL","61637 Peoria",40.701856,-89.590979,"61603",0,0,0
61638,17143,"Peoria","IL","61638 Peoria",40.796752,-89.611379,"61615",0,0,0
61639,17143,"Peoria","IL","61639 Peoria",40.709157,-89.564003,"61603",0,0,0
61641,17143,"Peoria","IL","61641 Peoria",40.633636,-89.652162,"61607",0,0,0
61643,17143,"Peoria","IL","61643 Peoria",40.724785,-89.556756,"61614",0,0,0
61650,17143,"Peoria","IL","61650 Peoria",40.685601,-89.595443,"61602",0,0,0
61651,17143,"Peoria","IL","61651 Peoria",40.685601,-89.595443,"61602",0,0,0
61652,17143,"Peoria","IL","61652 Peoria",40.685601,-89.595443,"61602",0,0,0
61653,17143,"Peoria","IL","61653 Peoria",40.685601,-89.595443,"61602",0,0,0
61654,17143,"Peoria","IL","61654 Peoria",40.685601,-89.595443,"61602",0,0,0
61655,17143,"Peoria","IL","61655 Peoria",40.685254,-89.594985,"61602",0,0,0
61656,17143,"Peoria","IL","61656 Peoria",40.685601,-89.595443,"61602",0,0,0
61701,17113,"McLean","IL","61701 Bloomington",40.478843,-88.987118,"",0,0,0
61702,17113,"McLean","IL","61702 Bloomington",40.488745,-88.956457,"61701",0,0,0
61704,17113,"McLean","IL","61704 Bloomington",40.479919,-88.947580,"",0,0,0
61709,17113,"McLean","IL","61709 Bloomington",40.459208,-88.958417,"61704",0,0,0
61710,17113,"McLean","IL","61710 Bloomington",40.476815,-88.952864,"61701",0,0,0
61720,17113,"McLean","IL","61720 Anchor",40.543674,-88.516472,"",0,0,0
61721,17179,"Tazewell","IL","61721 Armington",40.361202,-89.321488,"",0,0,0
61722,17113,"McLean","IL","61722 Arrowsmith",40.391118,-88.628916,"",0,0,0
61723,17107,"Logan","IL","61723 Atlanta",40.280887,-89.294637,"",0,0,0
61724,17113,"McLean","IL","61724 Bellflower",40.332667,-88.526824,"",0,0,0
61725,17113,"McLean","IL","61725 Carlock",40.608877,-89.111271,"",0,0,0
61726,17113,"McLean","IL","61726 Chenoa",40.742824,-88.716169,"",0,0,0
61727,17039,"De Witt","IL","61727 Clinton",40.153679,-88.958351,"",0,0,0
61728,17113,"McLean","IL","61728 Colfax",40.567094,-88.621294,"",0,0,0
61729,17203,"Woodford","IL","61729 Congerville",40.645247,-89.227686,"",0,0,0
61730,17113,"McLean","IL","61730 Cooksville",40.530264,-88.735282,"",0,0,0
61731,17113,"McLean","IL","61731 Cropsey",40.603546,-88.497647,"",0,0,0
61732,17113,"McLean","IL","61732 Danvers",40.527486,-89.196733,"",0,0,0
61733,17179,"Tazewell","IL","61733 Deer Creek",40.618941,-89.327452,"",0,0,0
61734,17179,"Tazewell","IL","61734 Delavan",40.379520,-89.538124,"",0,0,0
61735,17039,"De Witt","IL","61735 DeWitt",40.178010,-88.787430,"",0,0,0
61736,17113,"McLean","IL","61736 Downs",40.385220,-88.843497,"",0,0,0
61737,17113,"McLean","IL","61737 Ellsworth",40.442656,-88.745823,"",0,0,0
61738,17203,"Woodford","IL","61738 El Paso",40.737553,-89.019230,"",0,0,0
61739,17105,"Livingston","IL","61739 Fairbury",40.746912,-88.513325,"",0,0,0
61740,17105,"Livingston","IL","61740 Flanagan",40.872252,-88.855505,"",0,0,0
61741,17105,"Livingston","IL","61741 Forrest",40.749559,-88.409037,"",0,0,0
61742,17203,"Woodford","IL","61742 Goodfield",40.627331,-89.269491,"",0,0,0
61743,17105,"Livingston","IL","61743 Graymont",40.857504,-88.772368,"",0,0,0
61744,17113,"McLean","IL","61744 Gridley",40.739564,-88.889978,"",0,0,0
61745,17113,"McLean","IL","61745 Heyworth",40.334859,-88.993579,"",0,0,0
61747,17179,"Tazewell","IL","61747 Hopedale",40.423888,-89.422852,"",0,0,0
61748,17113,"McLean","IL","61748 Hudson",40.627936,-88.957451,"",0,0,0
61749,17039,"De Witt","IL","61749 Kenney",40.096506,-89.083269,"",0,0,0
61750,17039,"De Witt","IL","61750 Lane",40.121439,-88.856020,"61727",0,0,0
61751,17107,"Logan","IL","61751 Lawndale",40.219375,-89.280209,"62656",0,0,0
61752,17113,"McLean","IL","61752 Le Roy",40.348049,-88.761110,"",0,0,0
61753,17113,"McLean","IL","61753 Lexington",40.641755,-88.784523,"",0,0,0
61754,17113,"McLean","IL","61754 MC Lean",40.333756,-89.149640,"",0,0,0
61755,17179,"Tazewell","IL","61755 Mackinaw",40.555875,-89.332889,"",0,0,0
61756,17115,"Macon","IL","61756 Maroa",40.039194,-88.948124,"",0,0,0
61758,17113,"McLean","IL","61758 Merna",40.515956,-88.826014,"61761",0,0,0
61759,17179,"Tazewell","IL","61759 Minier",40.434482,-89.314090,"",0,0,0
61760,17203,"Woodford","IL","61760 Minonk",40.901766,-89.034111,"",0,0,0
61761,17113,"McLean","IL","61761 Normal",40.516593,-88.980214,"",0,0,0
61764,17105,"Livingston","IL","61764 Pontiac",40.880314,-88.631425,"",0,0,0
61769,17105,"Livingston","IL","61769 Saunemin",40.907410,-88.452582,"",0,0,0
61770,17113,"McLean","IL","61770 Saybrook",40.425572,-88.528300,"",0,0,0
61771,17203,"Woodford","IL","61771 Secor",40.706375,-89.110011,"",0,0,0
61772,17113,"McLean","IL","61772 Shirley",40.394585,-89.038235,"",0,0,0
61773,17053,"Ford","IL","61773 Sibley",40.570320,-88.385237,"",0,0,0
61774,17113,"McLean","IL","61774 Stanford",40.428019,-89.208647,"",0,0,0
61775,17105,"Livingston","IL","61775 Strawn",40.657523,-88.442765,"",0,0,0
61776,17113,"McLean","IL","61776 Towanda",40.565201,-88.893410,"",0,0,0
61777,17039,"De Witt","IL","61777 Wapella",40.222095,-88.959935,"",0,0,0
61778,17039,"De Witt","IL","61778 Waynesville",40.253223,-89.091032,"",0,0,0
61790,17113,"McLean","IL","61790 Normal",40.522368,-89.009044,"",0,0,0
61791,17113,"McLean","IL","61791 Bloomington",40.476952,-88.952893,"61701",0,0,0
61799,17113,"McLean","IL","61799 Bloomington",40.488425,-88.941947,"61704",0,0,0
61801,17019,"Champaign","IL","61801 Urbana",40.105594,-88.211919,"",0,0,0
61802,17019,"Champaign","IL","61802 Urbana",40.117811,-88.186325,"",0,0,0
61803,17019,"Champaign","IL","61803 Urbana",40.111921,-88.207296,"61801",0,0,0
61810,17183,"Vermilion","IL","61810 Allerton",39.917065,-87.919089,"",0,0,0
61811,17183,"Vermilion","IL","61811 Alvin",40.282139,-87.613714,"",0,0,0
61812,17183,"Vermilion","IL","61812 Armstrong",40.277264,-87.888103,"",0,0,0
61813,17147,"Piatt","IL","61813 Bement",39.922941,-88.570816,"",0,0,0
61814,17183,"Vermilion","IL","61814 Bismarck",40.249521,-87.608651,"",0,0,0
61815,17019,"Champaign","IL","61815 Bondville",40.110101,-88.369502,"61822",0,0,0
61816,17019,"Champaign","IL","61816 Broadlands",39.924248,-88.009604,"",0,0,0
61817,17183,"Vermilion","IL","61817 Catlin",40.027926,-87.714296,"",0,0,0
61818,17147,"Piatt","IL","61818 Cerro Gordo",39.880048,-88.729678,"",0,0,0
61820,17019,"Champaign","IL","61820 Champaign",40.111675,-88.246531,"",0,0,0
61821,17019,"Champaign","IL","61821 Champaign",40.108999,-88.276034,"",0,0,0
61822,17019,"Champaign","IL","61822 Champaign",40.106518,-88.306097,"",0,0,0
61824,17019,"Champaign","IL","61824 Champaign",40.137988,-88.277064,"61821",0,0,0
61825,17019,"Champaign","IL","61825 Champaign",40.111421,-88.230400,"61820",0,0,0
61826,17019,"Champaign","IL","61826 Champaign",40.111715,-88.278937,"61821",0,0,0
61830,17147,"Piatt","IL","61830 Cisco",39.996937,-88.733209,"",0,0,0
61831,17183,"Vermilion","IL","61831 Collison",40.225058,-87.798676,"",0,0,0
61832,17183,"Vermilion","IL","61832 Danville",40.138519,-87.626893,"",0,0,0
61833,17183,"Vermilion","IL","61833 Tilton",40.094574,-87.641456,"",0,0,0
61834,17183,"Vermilion","IL","61834 Danville",40.139664,-87.664014,"",0,0,0
61839,17147,"Piatt","IL","61839 De Land",40.122074,-88.637443,"",0,0,0
61840,17019,"Champaign","IL","61840 Dewey",40.311017,-88.301063,"",0,0,0
61841,17183,"Vermilion","IL","61841 Fairmount",40.026392,-87.841311,"",0,0,0
61842,17039,"De Witt","IL","61842 Farmer City",40.243219,-88.642459,"",0,0,0
61843,17019,"Champaign","IL","61843 Fisher",40.325432,-88.379280,"",0,0,0
61844,17183,"Vermilion","IL","61844 Fithian",40.135618,-87.863480,"",0,0,0
61845,17019,"Champaign","IL","61845 Foosland",40.369172,-88.402485,"",0,0,0
61846,17183,"Vermilion","IL","61846 Georgetown",39.975398,-87.634975,"",0,0,0
61847,17019,"Champaign","IL","61847 Gifford",40.312734,-88.029413,"",0,0,0
61848,17183,"Vermilion","IL","61848 Henning",40.305167,-87.701101,"60963",0,0,0
61849,17019,"Champaign","IL","61849 Homer",40.033373,-87.958656,"",0,0,0
61850,17183,"Vermilion","IL","61850 Indianola",39.938314,-87.749620,"",0,0,0
61851,17019,"Champaign","IL","61851 Ivesdale",39.944659,-88.456105,"",0,0,0
61852,17019,"Champaign","IL","61852 Longview",39.900215,-88.084950,"",0,0,0
61853,17019,"Champaign","IL","61853 Mahomet",40.195494,-88.404832,"",0,0,0
61854,17147,"Piatt","IL","61854 Mansfield",40.207082,-88.520218,"",0,0,0
61855,17147,"Piatt","IL","61855 Milmine",39.919648,-88.668788,"",0,0,0
61856,17147,"Piatt","IL","61856 Monticello",40.031354,-88.572900,"",0,0,0
61857,17183,"Vermilion","IL","61857 Muncie",40.115560,-87.844987,"61844",0,0,0
61858,17183,"Vermilion","IL","61858 Oakwood",40.115148,-87.776875,"",0,0,0
61859,17019,"Champaign","IL","61859 Ogden",40.134571,-87.978118,"",0,0,0
61862,17019,"Champaign","IL","61862 Penfield",40.305455,-87.947779,"",0,0,0
61863,17019,"Champaign","IL","61863 Pesotum",39.908171,-88.280308,"",0,0,0
61864,17019,"Champaign","IL","61864 Philo",39.989389,-88.147170,"",0,0,0
61865,17183,"Vermilion","IL","61865 Potomac",40.305481,-87.801214,"",0,0,0
61866,17019,"Champaign","IL","61866 Rantoul",40.309439,-88.151723,"",0,0,0
61870,17183,"Vermilion","IL","61870 Ridge Farm",39.909478,-87.611685,"",0,0,0
61871,17019,"Champaign","IL","61871 Royal",40.192878,-87.973817,"61859",0,0,0
61872,17019,"Champaign","IL","61872 Sadorus",39.952567,-88.366484,"",0,0,0
61873,17019,"Champaign","IL","61873 Saint Joseph",40.116704,-88.034559,"",0,0,0
61874,17019,"Champaign","IL","61874 Savoy",40.066185,-88.246467,"",0,0,0
61875,17019,"Champaign","IL","61875 Seymour",40.117866,-88.426614,"",0,0,0
61876,17183,"Vermilion","IL","61876 Sidell",39.910731,-87.820847,"",0,0,0
61877,17019,"Champaign","IL","61877 Sidney",40.003379,-88.085551,"",0,0,0
61878,17019,"Champaign","IL","61878 Thomasboro",40.241609,-88.155117,"",0,0,0
61880,17019,"Champaign","IL","61880 Tolono",39.985230,-88.260731,"",0,0,0
61882,17039,"De Witt","IL","61882 Weldon",40.119400,-88.749728,"",0,0,0
61883,17183,"Vermilion","IL","61883 Westville",40.042431,-87.632419,"",0,0,0
61884,17147,"Piatt","IL","61884 White Heath",40.124971,-88.484268,"",0,0,0
61910,17041,"Douglas","IL","61910 Arcola",39.685815,-88.308805,"",0,0,0
61911,17041,"Douglas","IL","61911 Arthur",39.711950,-88.467833,"",0,0,0
61912,17029,"Coles","IL","61912 Ashmore",39.528890,-88.042881,"",0,0,0
61913,17041,"Douglas","IL","61913 Atwood",39.824586,-88.456628,"",0,0,0
61914,17139,"Moultrie","IL","61914 Bethany",39.645459,-88.738073,"",0,0,0
61917,17045,"Edgar","IL","61917 Brocton",39.704067,-87.923997,"",0,0,0
61919,17041,"Douglas","IL","61919 Camargo",39.787553,-88.157377,"",0,0,0
61920,17029,"Coles","IL","61920 Charleston",39.487454,-88.171168,"",0,0,0
61924,17045,"Edgar","IL","61924 Chrisman",39.802897,-87.673563,"",0,0,0
61925,17139,"Moultrie","IL","61925 Dalton City",39.728904,-88.812523,"",0,0,0
61928,17139,"Moultrie","IL","61928 Gays",39.458932,-88.496654,"",0,0,0
61929,17147,"Piatt","IL","61929 Hammond",39.825916,-88.603755,"",0,0,0
61930,17041,"Douglas","IL","61930 Hindsboro",39.689449,-88.133812,"",0,0,0
61931,17029,"Coles","IL","61931 Humboldt",39.601772,-88.313140,"",0,0,0
61932,17045,"Edgar","IL","61932 Hume",39.798388,-87.875535,"",0,0,0
61933,17045,"Edgar","IL","61933 Kansas",39.540914,-87.915326,"",0,0,0
61936,17147,"Piatt","IL","61936 La Place",39.891182,-88.728510,"61818",0,0,0
61937,17139,"Moultrie","IL","61937 Lovington",39.718156,-88.638651,"",0,0,0
61938,17029,"Coles","IL","61938 Mattoon",39.474143,-88.374466,"",0,0,0
61940,17045,"Edgar","IL","61940 Metcalf",39.784422,-87.798682,"",0,0,0
61941,17041,"Douglas","IL","61941 Murdock",39.800347,-88.078219,"61919",0,0,0
61942,17041,"Douglas","IL","61942 Newman",39.806816,-87.993937,"",0,0,0
61943,17029,"Coles","IL","61943 Oakland",39.666240,-88.021764,"",0,0,0
61944,17045,"Edgar","IL","61944 Paris",39.609255,-87.689004,"",0,0,0
61949,17045,"Edgar","IL","61949 Redmon",39.645164,-87.860030,"61944",0,0,0
61951,17139,"Moultrie","IL","61951 Sullivan",39.595895,-88.604625,"",0,0,0
61953,17041,"Douglas","IL","61953 Tuscola",39.799905,-88.285235,"",0,0,0
61955,17045,"Edgar","IL","61955 Vermilion",39.580364,-87.587655,"61944",0,0,0
61956,17041,"Douglas","IL","61956 Villa Grove",39.863255,-88.158831,"",0,0,0
61957,17173,"Shelby","IL","61957 Windsor",39.438975,-88.594708,"",0,0,0
62001,17119,"Madison","IL","62001 Alhambra",38.884820,-89.739504,"",0,0,0
62002,17119,"Madison","IL","62002 Alton",38.908701,-90.150023,"",0,0,0
62006,17013,"Calhoun","IL","62006 Batchtown",39.036570,-90.641470,"",0,0,0
62009,17117,"Macoupin","IL","62009 Benld",39.093063,-89.802866,"",0,0,0
62010,17119,"Madison","IL","62010 Bethalto",38.912637,-90.041455,"",0,0,0
62011,17051,"Fayette","IL","62011 Bingham",39.112261,-89.213828,"",0,0,0
62012,17117,"Macoupin","IL","62012 Brighton",39.013786,-90.144607,"",0,0,0
62013,17013,"Calhoun","IL","62013 Brussels",38.949125,-90.587092,"",0,0,0
62014,17117,"Macoupin","IL","62014 Bunker Hill",39.041916,-89.952472,"",0,0,0
62015,17135,"Montgomery","IL","62015 Butler",39.215424,-89.538796,"",0,0,0
62016,17061,"Greene","IL","62016 Carrollton",39.298982,-90.407614,"",0,0,0
62017,17135,"Montgomery","IL","62017 Coffeen",39.064496,-89.385206,"",0,0,0
62018,17119,"Madison","IL","62018 Cottage Hills",38.907141,-90.082164,"",0,0,0
62019,17005,"Bond","IL","62019 Donnellson",39.027642,-89.443409,"",0,0,0
62021,17119,"Madison","IL","62021 Dorsey",38.982179,-89.988075,"",0,0,0
62022,17083,"Jersey","IL","62022 Dow",39.035905,-90.324591,"",0,0,0
62023,17117,"Macoupin","IL","62023 Eagarville",39.111714,-89.783645,"62069",0,0,0
62024,17119,"Madison","IL","62024 East Alton",38.882889,-90.094572,"",0,0,0
62025,17119,"Madison","IL","62025 Edwardsville",38.818656,-89.954798,"",0,0,0
62026,17119,"Madison","IL","62026 Edwardsville",38.793712,-89.998826,"",0,0,0
62027,17061,"Greene","IL","62027 Eldred",39.286901,-90.554514,"",0,0,0
62028,17083,"Jersey","IL","62028 Elsah",38.956446,-90.350554,"",0,0,0
62030,17083,"Jersey","IL","62030 Fidelity",39.131102,-90.155788,"",0,0,0
62031,17083,"Jersey","IL","62031 Fieldon",39.107796,-90.500072,"",0,0,0
62032,17135,"Montgomery","IL","62032 Fillmore",39.081125,-89.306738,"",0,0,0
62033,17117,"Macoupin","IL","62033 Gillespie",39.128630,-89.821927,"",0,0,0
62034,17119,"Madison","IL","62034 Glen Carbon",38.766602,-89.969626,"",0,0,0
62035,17119,"Madison","IL","62035 Godfrey",38.947676,-90.206828,"",0,0,0
62036,17013,"Calhoun","IL","62036 Golden Eagle",38.896253,-90.602518,"",0,0,0
62037,17083,"Jersey","IL","62037 Grafton",38.979084,-90.425766,"",0,0,0
62040,17119,"Madison","IL","62040 Granite City",38.724614,-90.111853,"",0,0,0
62044,17061,"Greene","IL","62044 Greenfield",39.342152,-90.210719,"",0,0,0
62045,17013,"Calhoun","IL","62045 Hamburg",39.216338,-90.689659,"",0,0,0
62046,17119,"Madison","IL","62046 Hamel",38.889122,-89.847929,"62025",0,0,0
62047,17013,"Calhoun","IL","62047 Hardin",39.153938,-90.623919,"",0,0,0
62048,17119,"Madison","IL","62048 Hartford",38.833332,-90.091964,"",0,0,0
62049,17135,"Montgomery","IL","62049 Hillsboro",39.146597,-89.490115,"",0,0,0
62050,17061,"Greene","IL","62050 Hillview",39.476200,-90.524331,"",0,0,0
62051,17135,"Montgomery","IL","62051 Irving",39.216340,-89.410918,"",0,0,0
62052,17083,"Jersey","IL","62052 Jerseyville",39.110670,-90.324680,"",0,0,0
62053,17013,"Calhoun","IL","62053 Kampsville",39.323875,-90.648023,"",0,0,0
62054,17083,"Jersey","IL","62054 Kane",39.188802,-90.313380,"",0,0,0
62056,17135,"Montgomery","IL","62056 Litchfield",39.177245,-89.653568,"",0,0,0
62058,17119,"Madison","IL","62058 Livingston",38.967580,-89.764017,"62074",0,0,0
62059,17163,"St. Clair","IL","62059 Lovejoy",38.655208,-90.167410,"62201",0,0,0
62060,17119,"Madison","IL","62060 Madison",38.682301,-90.155243,"",0,0,0
62061,17119,"Madison","IL","62061 Marine",38.786583,-89.787911,"",0,0,0
62062,17119,"Madison","IL","62062 Maryville",38.723049,-89.967053,"",0,0,0
62063,17117,"Macoupin","IL","62063 Medora",39.205897,-90.129797,"",0,0,0
62065,17013,"Calhoun","IL","62065 Michael",39.228786,-90.630742,"",0,0,0
62067,17119,"Madison","IL","62067 Moro",38.929400,-89.988282,"",0,0,0
62069,17117,"Macoupin","IL","62069 Mount Olive",39.075054,-89.726601,"",0,0,0
62070,17013,"Calhoun","IL","62070 Mozier",39.293537,-90.717142,"",0,0,0
62071,17163,"St. Clair","IL","62071 National Stock Yards",38.642194,-90.149892,"62201",0,0,0
62074,17119,"Madison","IL","62074 New Douglas",38.954928,-89.699156,"",0,0,0
62075,17135,"Montgomery","IL","62075 Nokomis",39.298722,-89.280955,"",0,0,0
62076,17135,"Montgomery","IL","62076 Ohlman",39.300291,-89.286088,"62075",0,0,0
62077,17135,"Montgomery","IL","62077 Panama",39.032113,-89.524142,"62019",0,0,0
62078,17061,"Greene","IL","62078 Patterson",39.485024,-90.473134,"62050",0,0,0
62079,17117,"Macoupin","IL","62079 Piasa",39.110955,-90.141785,"",0,0,0
62080,17051,"Fayette","IL","62080 Ramsey",39.217601,-89.188406,"",0,0,0
62081,17061,"Greene","IL","62081 Rockbridge",39.286231,-90.271652,"",0,0,0
62082,17061,"Greene","IL","62082 Roodhouse",39.485146,-90.368528,"",0,0,0
62083,17021,"Christian","IL","62083 Rosamond",39.364640,-89.190855,"",0,0,0
62084,17119,"Madison","IL","62084 Roxana",38.847790,-90.079931,"",0,0,0
62085,17117,"Macoupin","IL","62085 Sawyerville",39.079429,-89.807315,"62009",0,0,0
62086,17005,"Bond","IL","62086 Sorento",38.956947,-89.593057,"",0,0,0
62087,17119,"Madison","IL","62087 South Roxana",38.823716,-90.059538,"",0,0,0
62088,17117,"Macoupin","IL","62088 Staunton",39.016699,-89.794455,"",0,0,0
62089,17135,"Montgomery","IL","62089 Taylor Springs",39.134096,-89.490664,"62049",0,0,0
62090,17119,"Madison","IL","62090 Venice",38.671719,-90.168867,"",0,0,0
62091,17135,"Montgomery","IL","62091 Walshville",39.061895,-89.614280,"",0,0,0
62092,17061,"Greene","IL","62092 White Hall",39.436307,-90.402270,"",0,0,0
62093,17117,"Macoupin","IL","62093 Wilsonville",39.070731,-89.853080,"62033",0,0,0
62094,17135,"Montgomery","IL","62094 Witt",39.246415,-89.360785,"",0,0,0
62095,17119,"Madison","IL","62095 Wood River",38.862849,-90.086897,"",0,0,0
62097,17119,"Madison","IL","62097 Worden",38.928854,-89.843143,"",0,0,0
62098,17061,"Greene","IL","62098 Wrights",39.375448,-90.293030,"62092",0,0,0
62201,17163,"St. Clair","IL","62201 East Saint Louis",38.628071,-90.142371,"",0,0,0
62202,17163,"St. Clair","IL","62202 East Saint Louis",38.622496,-90.154088,"62201",0,0,0
62203,17163,"St. Clair","IL","62203 East Saint Louis",38.599877,-90.070759,"",0,0,0
62204,17163,"St. Clair","IL","62204 East Saint Louis",38.625895,-90.106225,"",0,0,0
62205,17163,"St. Clair","IL","62205 East Saint Louis",38.615079,-90.126432,"",0,0,0
62206,17163,"St. Clair","IL","62206 East Saint Louis",38.563609,-90.170327,"",0,0,0
62207,17163,"St. Clair","IL","62207 East Saint Louis",38.588031,-90.122427,"",0,0,0
62208,17163,"St. Clair","IL","62208 Fairview Heights",38.587395,-89.994190,"",0,0,0
62214,17189,"Washington","IL","62214 Addieville",38.364534,-89.593207,"",0,0,0
62215,17027,"Clinton","IL","62215 Albers",38.510115,-89.624219,"",0,0,0
62216,17027,"Clinton","IL","62216 Aviston",38.611930,-89.608050,"62293",0,0,0
62217,17157,"Randolph","IL","62217 Baldwin",38.178105,-89.824569,"",0,0,0
62218,17027,"Clinton","IL","62218 Bartelso",38.529130,-89.462304,"",0,0,0
62219,17027,"Clinton","IL","62219 Beckemeyer",38.605538,-89.435873,"62231",0,0,0
62220,17163,"St. Clair","IL","62220 Belleville",38.507852,-89.981909,"",0,0,0
62221,17163,"St. Clair","IL","62221 Belleville",38.524803,-89.943585,"",0,0,0
62222,17163,"St. Clair","IL","62222 Belleville",38.512618,-89.985752,"62220",0,0,0
62223,17163,"St. Clair","IL","62223 Belleville",38.550175,-90.047051,"",0,0,0
62224,17163,"St. Clair","IL","62224 Mascoutah",38.511033,-89.814261,"62258",0,0,0
62225,17163,"St. Clair","IL","62225 Scott Air Force Base",38.540757,-89.859771,"",0,0,0
62226,17163,"St. Clair","IL","62226 Belleville",38.541563,-90.001716,"",0,0,0
62230,17027,"Clinton","IL","62230 Breese",38.616237,-89.525860,"",0,0,0
62231,17027,"Clinton","IL","62231 Carlyle",38.628771,-89.362670,"",0,0,0
62232,17163,"St. Clair","IL","62232 Caseyville",38.631697,-90.025436,"",0,0,0
62233,17157,"Randolph","IL","62233 Chester",37.933161,-89.800159,"",0,0,0
62234,17119,"Madison","IL","62234 Collinsville",38.677825,-89.989748,"",0,0,0
62236,17133,"Monroe","IL","62236 Columbia",38.442362,-90.202225,"",0,0,0
62237,17157,"Randolph","IL","62237 Coulterville",38.186719,-89.603773,"",0,0,0
62238,17145,"Perry","IL","62238 Cutler",38.042869,-89.555998,"",0,0,0
62239,17163,"St. Clair","IL","62239 Dupo",38.518886,-90.205924,"",0,0,0
62240,17163,"St. Clair","IL","62240 East Carondelet",38.527106,-90.210954,"",0,0,0
62241,17157,"Randolph","IL","62241 Ellis Grove",38.010072,-89.889838,"",0,0,0
62242,17157,"Randolph","IL","62242 Evansville",38.093273,-89.947828,"",0,0,0
62243,17163,"St. Clair","IL","62243 Freeburg",38.425990,-89.911132,"",0,0,0
62244,17133,"Monroe","IL","62244 Fults",38.192536,-90.198287,"",0,0,0
62245,17027,"Clinton","IL","62245 Germantown",38.553211,-89.579726,"",0,0,0
62246,17005,"Bond","IL","62246 Greenville",38.892826,-89.404832,"",0,0,0
62247,17051,"Fayette","IL","62247 Hagarstown",38.943259,-89.169315,"62262",0,0,0
62248,17133,"Monroe","IL","62248 Hecker",38.305185,-89.994825,"",0,0,0
62249,17119,"Madison","IL","62249 Highland",38.739759,-89.669880,"",0,0,0
62250,17027,"Clinton","IL","62250 Hoffman",38.537551,-89.263694,"62801",0,0,0
62252,17027,"Clinton","IL","62252 Huey",38.603023,-89.290871,"62231",0,0,0
62253,17005,"Bond","IL","62253 Keyesport",38.770867,-89.307150,"",0,0,0
62254,17163,"St. Clair","IL","62254 Lebanon",38.605163,-89.824917,"",0,0,0
62255,17163,"St. Clair","IL","62255 Lenzburg",38.306599,-89.779473,"",0,0,0
62256,17133,"Monroe","IL","62256 Maeystown",38.223957,-90.233801,"62244",0,0,0
62257,17163,"St. Clair","IL","62257 Marissa",38.248658,-89.749112,"",0,0,0
62258,17163,"St. Clair","IL","62258 Mascoutah",38.487467,-89.799334,"",0,0,0
62259,17157,"Randolph","IL","62259 Menard",37.914803,-89.821060,"62233",0,0,0
62260,17163,"St. Clair","IL","62260 Millstadt",38.461710,-90.094831,"",0,0,0
62261,17157,"Randolph","IL","62261 Modoc",38.028450,-89.987147,"",0,0,0
62262,17005,"Bond","IL","62262 Mulberry Grove",38.926523,-89.269052,"",0,0,0
62263,17189,"Washington","IL","62263 Nashville",38.338536,-89.386463,"",0,0,0
62264,17163,"St. Clair","IL","62264 New Athens",38.323789,-89.878473,"",0,0,0
62265,17027,"Clinton","IL","62265 New Baden",38.535080,-89.697991,"",0,0,0
62266,17027,"Clinton","IL","62266 New Memphis",38.534917,-89.698333,"62265",0,0,0
62268,17189,"Washington","IL","62268 Oakdale",38.265659,-89.538666,"",0,0,0
62269,17163,"St. Clair","IL","62269 O Fallon",38.595168,-89.919042,"",0,0,0
62271,17189,"Washington","IL","62271 Okawville",38.427986,-89.513948,"",0,0,0
62272,17157,"Randolph","IL","62272 Percy",38.011795,-89.623522,"",0,0,0
62273,17119,"Madison","IL","62273 Pierron",38.779735,-89.598242,"62275",0,0,0
62274,17145,"Perry","IL","62274 Pinckneyville",38.075975,-89.385439,"",0,0,0
62275,17005,"Bond","IL","62275 Pocahontas",38.827732,-89.540938,"",0,0,0
62277,17157,"Randolph","IL","62277 Prairie du Rocher",38.087486,-90.097920,"",0,0,0
62278,17157,"Randolph","IL","62278 Red Bud",38.211259,-89.994073,"",0,0,0
62279,17133,"Monroe","IL","62279 Renault",38.153312,-90.134055,"62277",0,0,0
62280,17077,"Jackson","IL","62280 Rockwood",37.824947,-89.662584,"",0,0,0
62281,17119,"Madison","IL","62281 Saint Jacob",38.707448,-89.786974,"",0,0,0
62282,17163,"St. Clair","IL","62282 Saint Libory",38.490563,-89.798078,"62258",0,0,0
62284,17005,"Bond","IL","62284 Smithboro",38.887524,-89.312561,"",0,0,0
62285,17163,"St. Clair","IL","62285 Smithton",38.394404,-89.994093,"",0,0,0
62286,17157,"Randolph","IL","62286 Sparta",38.124674,-89.707585,"",0,0,0
62288,17157,"Randolph","IL","62288 Steeleville",38.004390,-89.665599,"",0,0,0
62289,17163,"St. Clair","IL","62289 Summerfield",38.603841,-89.806185,"62254",0,0,0
62292,17157,"Randolph","IL","62292 Tilden",38.211374,-89.681015,"62286",0,0,0
62293,17027,"Clinton","IL","62293 Trenton",38.609900,-89.668944,"",0,0,0
62294,17119,"Madison","IL","62294 Troy",38.723706,-89.883196,"",0,0,0
62295,17133,"Monroe","IL","62295 Valmeyer",38.296772,-90.305504,"",0,0,0
62297,17157,"Randolph","IL","62297 Walsh",38.056939,-89.816185,"",0,0,0
62298,17133,"Monroe","IL","62298 Waterloo",38.329221,-90.154018,"",0,0,0
62301,17001,"Adams","IL","62301 Quincy",39.932970,-91.388644,"",0,0,0
62305,17001,"Adams","IL","62305 Quincy",39.927211,-91.349836,"",0,0,0
62306,17001,"Adams","IL","62306 Quincy",39.949888,-91.362098,"62301",0,0,0
62311,17067,"Hancock","IL","62311 Augusta",40.225399,-90.957806,"",0,0,0
62312,17149,"Pike","IL","62312 Barry",39.695817,-91.041522,"",0,0,0
62313,17067,"Hancock","IL","62313 Basco",40.328170,-91.204558,"",0,0,0
62314,17149,"Pike","IL","62314 Baylis",39.727475,-90.907582,"",0,0,0
62316,17067,"Hancock","IL","62316 Bowen",40.202177,-91.046103,"",0,0,0
62319,17169,"Schuyler","IL","62319 Camden",40.153106,-90.770644,"",0,0,0
62320,17001,"Adams","IL","62320 Camp Point",40.041935,-91.064646,"",0,0,0
62321,17067,"Hancock","IL","62321 Carthage",40.413662,-91.135349,"",0,0,0
62323,17149,"Pike","IL","62323 Chambersburg",39.799884,-90.636452,"",0,0,0
62324,17001,"Adams","IL","62324 Clayton",39.989535,-90.986069,"",0,0,0
62325,17001,"Adams","IL","62325 Coatsburg",40.040188,-91.157262,"",0,0,0
62326,17109,"McDonough","IL","62326 Colchester",40.425067,-90.791114,"",0,0,0
62329,17067,"Hancock","IL","62329 Colusa",40.571235,-91.167379,"62358",0,0,0
62330,17067,"Hancock","IL","62330 Dallas City",40.622927,-91.124394,"",0,0,0
62334,17067,"Hancock","IL","62334 Elvaston",40.394917,-91.250473,"",0,0,0
62336,17067,"Hancock","IL","62336 Ferris",40.469009,-91.170635,"62321",0,0,0
62338,17001,"Adams","IL","62338 Fowler",39.984399,-91.252186,"",0,0,0
62339,17001,"Adams","IL","62339 Golden",40.120974,-91.017570,"",0,0,0
62340,17149,"Pike","IL","62340 Griggsville",39.707187,-90.726514,"",0,0,0
62341,17067,"Hancock","IL","62341 Hamilton",40.397748,-91.324251,"",0,0,0
62343,17149,"Pike","IL","62343 Hull",39.717246,-91.259165,"",0,0,0
62344,17169,"Schuyler","IL","62344 Huntsville",40.149252,-90.854258,"",0,0,0
62345,17149,"Pike","IL","62345 Kinderhook",39.660326,-91.181508,"",0,0,0
62346,17001,"Adams","IL","62346 La Prairie",40.149240,-90.975425,"",0,0,0
62347,17001,"Adams","IL","62347 Liberty",39.840884,-91.077671,"",0,0,0
62348,17001,"Adams","IL","62348 Lima",40.163633,-91.432422,"",0,0,0
62349,17001,"Adams","IL","62349 Loraine",40.153789,-91.202063,"",0,0,0
62351,17001,"Adams","IL","62351 Mendon",40.109726,-91.261075,"",0,0,0
62352,17149,"Pike","IL","62352 Milton",39.563911,-90.649571,"",0,0,0
62353,17009,"Brown","IL","62353 Mount Sterling",39.985935,-90.765961,"",0,0,0
62354,17067,"Hancock","IL","62354 Nauvoo",40.522149,-91.326303,"",0,0,0
62355,17149,"Pike","IL","62355 Nebo",39.443957,-90.787037,"",0,0,0
62356,17149,"Pike","IL","62356 New Canton",39.624673,-91.088721,"",0,0,0
62357,17149,"Pike","IL","62357 New Salem",39.707470,-90.866573,"",0,0,0
62358,17067,"Hancock","IL","62358 Niota",40.582819,-91.258343,"",0,0,0
62359,17001,"Adams","IL","62359 Paloma",40.025909,-91.195922,"",0,0,0
62360,17001,"Adams","IL","62360 Payson",39.817490,-91.249902,"",0,0,0
62361,17149,"Pike","IL","62361 Pearl",39.430187,-90.649265,"",0,0,0
62362,17149,"Pike","IL","62362 Perry",39.796571,-90.741546,"",0,0,0
62363,17149,"Pike","IL","62363 Pittsfield",39.606221,-90.806106,"",0,0,0
62365,17001,"Adams","IL","62365 Plainville",39.800758,-91.164670,"",0,0,0
62366,17149,"Pike","IL","62366 Pleasant Hill",39.443221,-90.871776,"",0,0,0
62367,17067,"Hancock","IL","62367 Plymouth",40.343469,-90.928241,"",0,0,0
62370,17149,"Pike","IL","62370 Rockport",39.536692,-91.012277,"",0,0,0
62373,17067,"Hancock","IL","62373 Sutter",40.243622,-91.350704,"",0,0,0
62374,17067,"Hancock","IL","62374 Tennessee",40.408666,-90.917696,"",0,0,0
62375,17009,"Brown","IL","62375 Timewell",40.008266,-90.873868,"",0,0,0
62376,17001,"Adams","IL","62376 Ursa",40.074933,-91.395569,"",0,0,0
62378,17009,"Brown","IL","62378 Versailles",39.884661,-90.656159,"",0,0,0
62379,17067,"Hancock","IL","62379 Warsaw",40.316883,-91.371280,"",0,0,0
62380,17067,"Hancock","IL","62380 West Point",40.233250,-91.197759,"",0,0,0
62401,17049,"Effingham","IL","62401 Effingham",39.112995,-88.558505,"",0,0,0
62410,17185,"Wabash","IL","62410 Allendale",38.529756,-87.742418,"",0,0,0
62411,17049,"Effingham","IL","62411 Altamont",39.060345,-88.748947,"",0,0,0
62413,17033,"Crawford","IL","62413 Annapolis",39.139700,-87.816876,"",0,0,0
62414,17049,"Effingham","IL","62414 Beecher City",39.188408,-88.783491,"",0,0,0
62417,17101,"Lawrence","IL","62417 Bridgeport",38.709418,-87.760298,"",0,0,0
62418,17051,"Fayette","IL","62418 Brownstown",38.995566,-88.951245,"",0,0,0
62419,17159,"Richland","IL","62419 Calhoun",38.621930,-87.997028,"",0,0,0
62420,17023,"Clark","IL","62420 Casey",39.295686,-87.988685,"",0,0,0
62421,17159,"Richland","IL","62421 Claremont",38.747323,-87.960829,"",0,0,0
62422,17173,"Shelby","IL","62422 Cowden",39.218480,-88.903897,"",0,0,0
62423,17023,"Clark","IL","62423 Dennison",39.458896,-87.568335,"",0,0,0
62424,17049,"Effingham","IL","62424 Dieterich",39.045452,-88.380408,"",0,0,0
62425,17159,"Richland","IL","62425 Dundas",38.833301,-88.113187,"",0,0,0
62426,17049,"Effingham","IL","62426 Edgewood",38.923676,-88.663278,"",0,0,0
62427,17033,"Crawford","IL","62427 Flat Rock",38.876846,-87.731229,"",0,0,0
62428,17035,"Cumberland","IL","62428 Greenup",39.244914,-88.129495,"",0,0,0
62431,17173,"Shelby","IL","62431 Herrick",39.221915,-88.982489,"",0,0,0
62432,17079,"Jasper","IL","62432 Hidalgo",39.125308,-88.133275,"",0,0,0
62433,17033,"Crawford","IL","62433 Hutsonville",39.114159,-87.699702,"",0,0,0
62434,17079,"Jasper","IL","62434 Ingraham",38.868546,-88.314512,"",0,0,0
62435,17029,"Coles","IL","62435 Janesville",39.374633,-88.244187,"62440",0,0,0
62436,17035,"Cumberland","IL","62436 Jewett",39.184658,-88.247436,"",0,0,0
62438,17173,"Shelby","IL","62438 Lakewood",39.311224,-88.861869,"",0,0,0
62439,17101,"Lawrence","IL","62439 Lawrenceville",38.728657,-87.681495,"",0,0,0
62440,17029,"Coles","IL","62440 Lerna",39.396467,-88.266975,"",0,0,0
62441,17023,"Clark","IL","62441 Marshall",39.392734,-87.692827,"",0,0,0
62442,17023,"Clark","IL","62442 Martinsville",39.300406,-87.836820,"",0,0,0
62443,17049,"Effingham","IL","62443 Mason",38.950613,-88.625269,"",0,0,0
62444,17173,"Shelby","IL","62444 Mode",39.265545,-88.732777,"62414",0,0,0
62445,17079,"Jasper","IL","62445 Montrose",39.167530,-88.327432,"",0,0,0
62446,17191,"Wayne","IL","62446 Mount Erie",38.533715,-88.204202,"",0,0,0
62447,17035,"Cumberland","IL","62447 Neoga",39.316314,-88.439986,"",0,0,0
62448,17079,"Jasper","IL","62448 Newton",38.991274,-88.166463,"",0,0,0
62449,17033,"Crawford","IL","62449 Oblong",39.003295,-87.908918,"",0,0,0
62450,17159,"Richland","IL","62450 Olney",38.724100,-88.080808,"",0,0,0
62451,17033,"Crawford","IL","62451 Palestine",39.001756,-87.615380,"",0,0,0
62452,17159,"Richland","IL","62452 Parkersburg",38.592320,-88.043634,"",0,0,0
62454,17033,"Crawford","IL","62454 Robinson",39.007063,-87.747342,"",0,0,0
62458,17051,"Fayette","IL","62458 Saint Elmo",39.026231,-88.851720,"",0,0,0
62459,17079,"Jasper","IL","62459 Sainte Marie",38.932355,-88.023242,"62480",0,0,0
62460,17185,"Wabash","IL","62460 Saint Francisville",38.561747,-87.755551,"",0,0,0
62461,17049,"Effingham","IL","62461 Shumway",39.184718,-88.657594,"",0,0,0
62462,17035,"Cumberland","IL","62462 Sigel",39.214701,-88.435383,"",0,0,0
62463,17173,"Shelby","IL","62463 Stewardson",39.264787,-88.628599,"",0,0,0
62464,17033,"Crawford","IL","62464 Stoy",38.995530,-87.833514,"62454",0,0,0
62465,17173,"Shelby","IL","62465 Strasburg",39.351039,-88.620662,"",0,0,0
62466,17101,"Lawrence","IL","62466 Sumner",38.716113,-87.860522,"",0,0,0
62467,17049,"Effingham","IL","62467 Teutopolis",39.133499,-88.476711,"",0,0,0
62468,17035,"Cumberland","IL","62468 Toledo",39.273945,-88.239420,"",0,0,0
62469,17035,"Cumberland","IL","62469 Trilla",39.346808,-88.341779,"",0,0,0
62471,17051,"Fayette","IL","62471 Vandalia",38.963644,-89.111971,"",0,0,0
62473,17049,"Effingham","IL","62473 Watson",39.026549,-88.563943,"",0,0,0
62474,17023,"Clark","IL","62474 Westfield",39.437385,-87.978261,"",0,0,0
62475,17079,"Jasper","IL","62475 West Liberty",38.893665,-88.056595,"",0,0,0
62476,17047,"Edwards","IL","62476 West Salem",38.526574,-87.984974,"",0,0,0
62477,17023,"Clark","IL","62477 West Union",39.265516,-87.652293,"",0,0,0
62478,17033,"Crawford","IL","62478 West York",39.157127,-87.716783,"",0,0,0
62479,17079,"Jasper","IL","62479 Wheeler",39.033323,-88.298052,"",0,0,0
62480,17079,"Jasper","IL","62480 Willow Hill",39.010413,-88.022156,"",0,0,0
62481,17079,"Jasper","IL","62481 Yale",39.127740,-88.025106,"",0,0,0
62501,17115,"Macon","IL","62501 Argenta",39.850319,-88.803973,"",0,0,0
62510,17021,"Christian","IL","62510 Assumption",39.519110,-89.050053,"",0,0,0
62512,17107,"Logan","IL","62512 Beason",40.142602,-89.193217,"",0,0,0
62513,17021,"Christian","IL","62513 Blue Mound",39.728345,-89.147566,"",0,0,0
62514,17115,"Macon","IL","62514 Boody",39.771554,-89.048258,"",0,0,0
62515,17167,"Sangamon","IL","62515 Buffalo",39.852710,-89.389074,"",0,0,0
62517,17021,"Christian","IL","62517 Bulpitt",39.591907,-89.425788,"",0,0,0
62518,17107,"Logan","IL","62518 Chestnut",40.052722,-89.188987,"",0,0,0
62519,17107,"Logan","IL","62519 Cornland",39.937344,-89.402370,"62634",0,0,0
62520,17167,"Sangamon","IL","62520 Dawson",39.817273,-89.452539,"",0,0,0
62521,17115,"Macon","IL","62521 Decatur",39.826902,-88.937790,"",0,0,0
62522,17115,"Macon","IL","62522 Decatur",39.839676,-88.995025,"",0,0,0
62523,17115,"Macon","IL","62523 Decatur",39.840352,-88.955819,"",0,0,0
62524,17115,"Macon","IL","62524 Decatur",39.878736,-88.954795,"62526",0,0,0
62525,17115,"Macon","IL","62525 Decatur",39.846851,-88.951339,"62523",0,0,0
62526,17115,"Macon","IL","62526 Decatur",39.878809,-88.960994,"",0,0,0
62530,17167,"Sangamon","IL","62530 Divernon",39.565575,-89.657878,"",0,0,0
62531,17021,"Christian","IL","62531 Edinburg",39.662272,-89.368286,"",0,0,0
62532,17115,"Macon","IL","62532 Elwin",39.778213,-88.980829,"62521",0,0,0
62533,17135,"Montgomery","IL","62533 Farmersville",39.443564,-89.617950,"",0,0,0
62534,17173,"Shelby","IL","62534 Findlay",39.522662,-88.755280,"",0,0,0
62535,17115,"Macon","IL","62535 Forsyth",39.925996,-88.965952,"",0,0,0
62536,17167,"Sangamon","IL","62536 Glenarm",39.638581,-89.647704,"",0,0,0
62537,17115,"Macon","IL","62537 Harristown",39.841719,-89.080329,"62522",0,0,0
62538,17021,"Christian","IL","62538 Harvel",39.356052,-89.521543,"",0,0,0
62539,17167,"Sangamon","IL","62539 Illiopolis",39.860917,-89.236188,"",0,0,0
62540,17021,"Christian","IL","62540 Kincaid",39.587859,-89.414976,"62568",0,0,0
62541,17107,"Logan","IL","62541 Lake Fork",39.969727,-89.349960,"62548",0,0,0
62543,17107,"Logan","IL","62543 Latham",39.961259,-89.161488,"",0,0,0
62544,17115,"Macon","IL","62544 Macon",39.712620,-89.005474,"",0,0,0
62545,17167,"Sangamon","IL","62545 Mechanicsburg",39.764091,-89.396777,"",0,0,0
62546,17021,"Christian","IL","62546 Morrisonville",39.421035,-89.455991,"",0,0,0
62547,17021,"Christian","IL","62547 Mount Auburn",39.775858,-89.247710,"",0,0,0
62548,17107,"Logan","IL","62548 Mount Pulaski",40.009580,-89.283915,"",0,0,0
62549,17115,"Macon","IL","62549 Mt Zion",39.776084,-88.870447,"",0,0,0
62550,17173,"Shelby","IL","62550 Moweaqua",39.626022,-89.016268,"",0,0,0
62551,17115,"Macon","IL","62551 Niantic",39.861518,-89.161178,"",0,0,0
62553,17135,"Montgomery","IL","62553 Oconee",39.275935,-89.162091,"",0,0,0
62554,17115,"Macon","IL","62554 Oreana",39.939542,-88.868470,"",0,0,0
62555,17021,"Christian","IL","62555 Owaneco",39.472977,-89.205061,"",0,0,0
62556,17021,"Christian","IL","62556 Palmer",39.469589,-89.365547,"",0,0,0
62557,17021,"Christian","IL","62557 Pana",39.388847,-89.087295,"",0,0,0
62558,17167,"Sangamon","IL","62558 Pawnee",39.595826,-89.582536,"",0,0,0
62560,17135,"Montgomery","IL","62560 Raymond",39.299612,-89.609343,"",0,0,0
62561,17167,"Sangamon","IL","62561 Riverton",39.861668,-89.543297,"",0,0,0
62563,17167,"Sangamon","IL","62563 Rochester",39.744075,-89.536440,"",0,0,0
62565,17173,"Shelby","IL","62565 Shelbyville",39.406599,-88.801484,"",0,0,0
62567,17021,"Christian","IL","62567 Stonington",39.640547,-89.185066,"",0,0,0
62568,17021,"Christian","IL","62568 Taylorville",39.547404,-89.303959,"",0,0,0
62570,17021,"Christian","IL","62570 Tovey",39.589777,-89.447289,"62568",0,0,0
62571,17173,"Shelby","IL","62571 Tower Hill",39.347058,-88.971522,"",0,0,0
62572,17135,"Montgomery","IL","62572 Waggoner",39.368262,-89.661932,"",0,0,0
62573,17115,"Macon","IL","62573 Warrensburg",39.933115,-89.070623,"",0,0,0
62601,17137,"Morgan","IL","62601 Alexander",39.739791,-90.052561,"",0,0,0
62610,17171,"Scott","IL","62610 Alsey",39.560737,-90.433201,"62694",0,0,0
62611,17017,"Cass","IL","62611 Arenzville",39.887799,-90.379691,"",0,0,0
62612,17017,"Cass","IL","62612 Ashland",39.887168,-90.092858,"",0,0,0
62613,17129,"Menard","IL","62613 Athens",39.961839,-89.723984,"",0,0,0
62615,17167,"Sangamon","IL","62615 Auburn",39.589283,-89.747035,"",0,0,0
62617,17125,"Mason","IL","62617 Bath",40.151320,-90.181385,"",0,0,0
62618,17017,"Cass","IL","62618 Beardstown",40.010769,-90.426937,"",0,0,0
62621,17171,"Scott","IL","62621 Bluffs",39.738854,-90.507102,"",0,0,0
62622,17017,"Cass","IL","62622 Bluff Springs",39.990085,-90.346038,"62618",0,0,0
62624,17169,"Schuyler","IL","62624 Browning",40.157523,-90.348339,"",0,0,0
62625,17167,"Sangamon","IL","62625 Cantrall",39.902228,-89.693994,"",0,0,0
62626,17117,"Macoupin","IL","62626 Carlinville",39.275687,-89.886434,"",0,0,0
62627,17017,"Cass","IL","62627 Chandlerville",40.047259,-90.151988,"",0,0,0
62628,17137,"Morgan","IL","62628 Chapin",39.788449,-90.399737,"",0,0,0
62629,17167,"Sangamon","IL","62629 Chatham",39.676325,-89.703812,"",0,0,0
62630,17117,"Macoupin","IL","62630 Chesterfield",39.261971,-90.092235,"",0,0,0
62631,17137,"Morgan","IL","62631 Concord",39.828647,-90.372699,"",0,0,0
62633,17125,"Mason","IL","62633 Easton",40.218776,-89.856812,"",0,0,0
62634,17107,"Logan","IL","62634 Elkhart",40.020234,-89.469531,"",0,0,0
62635,17107,"Logan","IL","62635 Emden",40.289524,-89.488751,"",0,0,0
62638,17137,"Morgan","IL","62638 Franklin",39.622720,-90.045988,"",0,0,0
62639,17169,"Schuyler","IL","62639 Frederick",40.056398,-90.493087,"",0,0,0
62640,17117,"Macoupin","IL","62640 Girard",39.445420,-89.787006,"",0,0,0
62642,17129,"Menard","IL","62642 Greenview",40.083188,-89.742004,"",0,0,0
62643,17107,"Logan","IL","62643 Hartsburg",40.248838,-89.440928,"",0,0,0
62644,17125,"Mason","IL","62644 Havana",40.294671,-90.056140,"",0,0,0
62649,17117,"Macoupin","IL","62649 Hettick",39.376020,-90.078583,"",0,0,0
62650,17137,"Morgan","IL","62650 Jacksonville",39.732983,-90.233980,"",0,0,0
62651,17137,"Morgan","IL","62651 Jacksonville",39.734928,-90.229921,"62650",0,0,0
62655,17125,"Mason","IL","62655 Kilbourne",40.162683,-89.992212,"",0,0,0
62656,17107,"Logan","IL","62656 Lincoln",40.145623,-89.361868,"",0,0,0
62659,17129,"Menard","IL","62659 Lincoln s New Salem",40.009992,-89.849757,"62675",0,0,0
62660,17137,"Morgan","IL","62660 Literberry",39.851707,-90.200272,"62650",0,0,0
62661,17167,"Sangamon","IL","62661 Loami",39.668235,-89.852609,"",0,0,0
62662,17167,"Sangamon","IL","62662 Lowder",39.551550,-89.846315,"62692",0,0,0
62663,17171,"Scott","IL","62663 Manchester",39.542104,-90.331335,"62694",0,0,0
62664,17125,"Mason","IL","62664 Mason City",40.202162,-89.698643,"",0,0,0
62665,17137,"Morgan","IL","62665 Meredosia",39.818821,-90.531361,"",0,0,0
62666,17107,"Logan","IL","62666 Middletown",40.085411,-89.537830,"",0,0,0
62667,17117,"Macoupin","IL","62667 Modesto",39.489324,-89.982132,"",0,0,0
62668,17137,"Morgan","IL","62668 Murrayville",39.578014,-90.241821,"",0,0,0
62670,17167,"Sangamon","IL","62670 New Berlin",39.763606,-89.885634,"",0,0,0
62671,17107,"Logan","IL","62671 New Holland",40.164988,-89.552199,"",0,0,0
62672,17117,"Macoupin","IL","62672 Nilwood",39.351626,-89.735021,"",0,0,0
62673,17017,"Cass","IL","62673 Oakford",40.075760,-90.013822,"",0,0,0
62674,17117,"Macoupin","IL","62674 Palmyra",39.419723,-89.995746,"",0,0,0
62675,17129,"Menard","IL","62675 Petersburg",40.008695,-89.853011,"",0,0,0
62677,17167,"Sangamon","IL","62677 Pleasant Plains",39.865872,-89.831913,"",0,0,0
62681,17169,"Schuyler","IL","62681 Rushville",40.121465,-90.563013,"",0,0,0
62682,17125,"Mason","IL","62682 San Jose",40.305333,-89.628651,"",0,0,0
62683,17117,"Macoupin","IL","62683 Scottville",39.480394,-90.103525,"",0,0,0
62684,17167,"Sangamon","IL","62684 Sherman",39.887202,-89.595561,"",0,0,0
62685,17117,"Macoupin","IL","62685 Shipman",39.117830,-90.044374,"",0,0,0
62688,17129,"Menard","IL","62688 Tallula",39.948237,-89.936848,"",0,0,0
62689,17167,"Sangamon","IL","62689 Thayer",39.537614,-89.763247,"62615",0,0,0
62690,17117,"Macoupin","IL","62690 Virden",39.502304,-89.767618,"",0,0,0
62691,17017,"Cass","IL","62691 Virginia",39.949050,-90.208969,"",0,0,0
62692,17137,"Morgan","IL","62692 Waverly",39.592418,-89.954955,"",0,0,0
62693,17167,"Sangamon","IL","62693 Williamsville",39.952561,-89.534016,"",0,0,0
62694,17171,"Scott","IL","62694 Winchester",39.628813,-90.456290,"",0,0,0
62695,17137,"Morgan","IL","62695 Woodson",39.628816,-90.219733,"62650",0,0,0
62701,17167,"Sangamon","IL","62701 Springfield",39.799892,-89.649311,"",0,0,0
62702,17167,"Sangamon","IL","62702 Springfield",39.819655,-89.643157,"",0,0,0
62703,17167,"Sangamon","IL","62703 Springfield",39.772551,-89.632947,"",0,0,0
62704,17167,"Sangamon","IL","62704 Springfield",39.779775,-89.679219,"",0,0,0
62705,17167,"Sangamon","IL","62705 Springfield",39.794508,-89.624467,"62703",0,0,0
62706,17167,"Sangamon","IL","62706 Springfield",39.799294,-89.653426,"62704",0,0,0
62707,17167,"Sangamon","IL","62707 Springfield",39.858547,-89.614478,"",0,0,0
62708,17167,"Sangamon","IL","62708 Springfield",39.794508,-89.624467,"62703",0,0,0
62711,17167,"Sangamon","IL","62711 Springfield",39.773538,-89.723481,"",0,0,0
62712,17167,"Sangamon","IL","62712 Springfield",39.726090,-89.608052,"",0,0,0
62713,17167,"Sangamon","IL","62713 Springfield",39.791877,-89.646283,"62703",0,0,0
62715,17167,"Sangamon","IL","62715 Springfield",39.802303,-89.646974,"62701",0,0,0
62716,17167,"Sangamon","IL","62716 Springfield",39.749501,-89.613085,"62712",0,0,0
62719,17167,"Sangamon","IL","62719 Springfield",39.802855,-89.654801,"62702",0,0,0
62721,17167,"Sangamon","IL","62721 Springfield",39.794743,-89.648167,"62703",0,0,0
62722,17167,"Sangamon","IL","62722 Springfield",39.797075,-89.653461,"62704",0,0,0
62723,17167,"Sangamon","IL","62723 Springfield",39.768935,-89.607561,"62703",0,0,0
62726,17167,"Sangamon","IL","62726 Springfield",39.802855,-89.654801,"62702",0,0,0
62736,17167,"Sangamon","IL","62736 Springfield",39.802855,-89.654801,"62702",0,0,0
62739,17167,"Sangamon","IL","62739 Springfield",39.800415,-89.647709,"62701",0,0,0
62746,17167,"Sangamon","IL","62746 Springfield",39.802855,-89.654801,"62702",0,0,0
62756,17167,"Sangamon","IL","62756 Springfield",39.797075,-89.653461,"62704",0,0,0
62757,17167,"Sangamon","IL","62757 Springfield",39.799184,-89.646451,"62701",0,0,0
62761,17167,"Sangamon","IL","62761 Springfield",39.802952,-89.660641,"62702",0,0,0
62762,17167,"Sangamon","IL","62762 Springfield",39.786889,-89.654974,"62704",0,0,0
62763,17167,"Sangamon","IL","62763 Springfield",39.786931,-89.653480,"62704",0,0,0
62764,17167,"Sangamon","IL","62764 Springfield",39.774659,-89.607593,"62703",0,0,0
62765,17167,"Sangamon","IL","62765 Springfield",39.801543,-89.643581,"62701",0,0,0
62766,17167,"Sangamon","IL","62766 Springfield",39.772541,-89.605865,"62703",0,0,0
62767,17167,"Sangamon","IL","62767 Springfield",39.801760,-89.657544,"62701",0,0,0
62769,17167,"Sangamon","IL","62769 Springfield",39.807174,-89.644723,"62702",0,0,0
62776,17167,"Sangamon","IL","62776 Springfield",39.799294,-89.653426,"62704",0,0,0
62777,17167,"Sangamon","IL","62777 Springfield",39.801757,-89.654746,"62701",0,0,0
62781,17167,"Sangamon","IL","62781 Springfield",39.808451,-89.654667,"62702",0,0,0
62786,17167,"Sangamon","IL","62786 Springfield",39.801760,-89.657544,"62701",0,0,0
62791,17167,"Sangamon","IL","62791 Springfield",39.799540,-89.683985,"62704",0,0,0
62794,17167,"Sangamon","IL","62794 Springfield",39.794508,-89.624467,"62703",0,0,0
62796,17167,"Sangamon","IL","62796 Springfield",39.794505,-89.624955,"62703",0,0,0
62801,17121,"Marion","IL","62801 Centralia",38.521003,-89.133155,"",0,0,0
62803,17189,"Washington","IL","62803 Hoyleton",38.456731,-89.296206,"",0,0,0
62805,17055,"Franklin","IL","62805 Akin",37.987574,-88.747670,"62890",0,0,0
62806,17047,"Edwards","IL","62806 Albion",38.376988,-88.060921,"",0,0,0
62807,17121,"Marion","IL","62807 Alma",38.758595,-88.928296,"",0,0,0
62808,17189,"Washington","IL","62808 Ashley",38.333367,-89.224450,"",0,0,0
62809,17191,"Wayne","IL","62809 Barnhill",38.275984,-88.391555,"",0,0,0
62810,17081,"Jefferson","IL","62810 Belle Rive",38.186853,-88.766947,"",0,0,0
62811,17185,"Wabash","IL","62811 Bellmont",38.386246,-87.911835,"62863",0,0,0
62812,17055,"Franklin","IL","62812 Benton",38.001688,-88.927639,"",0,0,0
62814,17081,"Jefferson","IL","62814 Bluford",38.402064,-88.760436,"",0,0,0
62815,17047,"Edwards","IL","62815 Bone Gap",38.448958,-88.000118,"",0,0,0
62816,17081,"Jefferson","IL","62816 Bonnie",38.184541,-88.905483,"",0,0,0
62817,17065,"Hamilton","IL","62817 Broughton",37.961804,-88.457578,"",0,0,0
62818,17185,"Wabash","IL","62818 Browns",38.422737,-87.928643,"",0,0,0
62819,17055,"Franklin","IL","62819 Buckner",37.981474,-89.015048,"",0,0,0
62820,17193,"White","IL","62820 Burnt Prairie",38.235315,-88.245773,"",0,0,0
62821,17193,"White","IL","62821 Carmi",38.082504,-88.167043,"",0,0,0
62822,17055,"Franklin","IL","62822 Christopher",37.973174,-89.054559,"",0,0,0
62823,17191,"Wayne","IL","62823 Cisne",38.514039,-88.363759,"",0,0,0
62824,17025,"Clay","IL","62824 Clay City",38.686853,-88.356204,"",0,0,0
62825,17055,"Franklin","IL","62825 Coello",37.994552,-89.069509,"62812",0,0,0
62827,17193,"White","IL","62827 Crossville",38.164741,-88.041138,"",0,0,0
62828,17065,"Hamilton","IL","62828 Dahlgren",38.207653,-88.568442,"",0,0,0
62829,17065,"Hamilton","IL","62829 Dale",37.994612,-88.540030,"",0,0,0
62830,17081,"Jefferson","IL","62830 DIX",38.440189,-88.966913,"",0,0,0
62831,17189,"Washington","IL","62831 Du Bois",38.234261,-89.230654,"",0,0,0
62832,17145,"Perry","IL","62832 Du Quoin",38.011515,-89.230193,"",0,0,0
62833,17047,"Edwards","IL","62833 Ellery",38.359745,-88.133181,"",0,0,0
62834,17193,"White","IL","62834 Emma",37.973565,-88.120140,"62821",0,0,0
62835,17193,"White","IL","62835 Enfield",38.085983,-88.318773,"",0,0,0
62836,17055,"Franklin","IL","62836 Ewing",38.092406,-88.797031,"",0,0,0
62837,17191,"Wayne","IL","62837 Fairfield",38.379554,-88.360201,"",0,0,0
62838,17121,"Marion","IL","62838 Farina",38.817022,-88.760731,"",0,0,0
62839,17025,"Clay","IL","62839 Flora",38.669791,-88.482535,"",0,0,0
62840,17055,"Franklin","IL","62840 Frankfort Heights",37.898068,-88.906754,"62896",0,0,0
62841,17199,"Williamson","IL","62841 Freeman Spur",37.802281,-89.027599,"62948",0,0,0
62842,17191,"Wayne","IL","62842 Geff",38.442508,-88.403936,"",0,0,0
62843,17191,"Wayne","IL","62843 Golden Gate",38.361658,-88.204242,"",0,0,0
62844,17047,"Edwards","IL","62844 Grayville",38.262427,-87.999328,"",0,0,0
62846,17081,"Jefferson","IL","62846 Ina",38.148490,-88.870984,"",0,0,0
62848,17189,"Washington","IL","62848 Irvington",38.438424,-89.163946,"62877",0,0,0
62849,17121,"Marion","IL","62849 Iuka",38.576546,-88.777472,"",0,0,0
62850,17191,"Wayne","IL","62850 Johnsonville",38.531983,-88.596235,"",0,0,0
62851,17191,"Wayne","IL","62851 Keenes",38.372597,-88.649013,"",0,0,0
62852,17185,"Wabash","IL","62852 Keensburg",38.349996,-87.870859,"62863",0,0,0
62853,17121,"Marion","IL","62853 Kell",38.526539,-88.912587,"",0,0,0
62854,17121,"Marion","IL","62854 Kinmundy",38.771046,-88.848234,"",0,0,0
62855,17185,"Wabash","IL","62855 Lancaster",38.520952,-87.905058,"",0,0,0
62856,17055,"Franklin","IL","62856 Logan",37.958187,-88.840267,"62812",0,0,0
62857,17051,"Fayette","IL","62857 Loogootee",38.904571,-88.853022,"62880",0,0,0
62858,17025,"Clay","IL","62858 Louisville",38.767254,-88.515058,"",0,0,0
62859,17065,"Hamilton","IL","62859 MC Leansboro",38.092288,-88.535048,"",0,0,0
62860,17055,"Franklin","IL","62860 Macedonia",38.052453,-88.742271,"",0,0,0
62861,17193,"White","IL","62861 Maunie",38.089383,-88.159388,"62821",0,0,0
62862,17193,"White","IL","62862 Mill Shoals",38.241455,-88.329850,"",0,0,0
62863,17185,"Wabash","IL","62863 Mount Carmel",38.417167,-87.771073,"",0,0,0
62864,17081,"Jefferson","IL","62864 Mount Vernon",38.316633,-88.907398,"",0,0,0
62865,17055,"Franklin","IL","62865 Mulkeytown",37.936054,-89.081356,"",0,0,0
62866,17081,"Jefferson","IL","62866 Nason",38.141649,-89.013005,"",0,0,0
62867,17193,"White","IL","62867 New Haven",37.913890,-88.154276,"",0,0,0
62868,17159,"Richland","IL","62868 Noble",38.697423,-88.224660,"",0,0,0
62869,17193,"White","IL","62869 Norris City",37.966631,-88.287418,"",0,0,0
62870,17121,"Marion","IL","62870 Odin",38.630442,-89.049721,"",0,0,0
62871,17059,"Gallatin","IL","62871 Omaha",37.869524,-88.251929,"",0,0,0
62872,17081,"Jefferson","IL","62872 Opdyke",38.281562,-88.795473,"",0,0,0
62874,17055,"Franklin","IL","62874 Orient",37.915703,-88.976177,"62896",0,0,0
62875,17121,"Marion","IL","62875 Patoka",38.750466,-89.059807,"",0,0,0
62876,17189,"Washington","IL","62876 Radom",38.281878,-89.195347,"62831",0,0,0
62877,17189,"Washington","IL","62877 Richview",38.396878,-89.223743,"",0,0,0
62878,17191,"Wayne","IL","62878 Rinard",38.581924,-88.477821,"",0,0,0
62879,17025,"Clay","IL","62879 Sailor Springs",38.763294,-88.356127,"62434",0,0,0
62880,17051,"Fayette","IL","62880 Saint Peter",38.868656,-88.864612,"",0,0,0
62881,17121,"Marion","IL","62881 Salem",38.631112,-88.940003,"",0,0,0
62882,17121,"Marion","IL","62882 Sandoval",38.617308,-89.114307,"",0,0,0
62883,17081,"Jefferson","IL","62883 Scheller",38.161123,-89.102893,"",0,0,0
62884,17055,"Franklin","IL","62884 Sesser",38.080245,-89.054026,"",0,0,0
62885,17051,"Fayette","IL","62885 Shobonier",38.846297,-89.089390,"",0,0,0
62886,17191,"Wayne","IL","62886 Sims",38.410578,-88.528732,"",0,0,0
62887,17193,"White","IL","62887 Springerton",38.184465,-88.354184,"",0,0,0
62888,17145,"Perry","IL","62888 Tamaroa",38.138408,-89.228906,"",0,0,0
62889,17081,"Jefferson","IL","62889 Texico",38.457450,-88.829837,"",0,0,0
62890,17055,"Franklin","IL","62890 Thompsonville",37.917780,-88.762628,"",0,0,0
62891,17055,"Franklin","IL","62891 Valier",37.972867,-89.054538,"62822",0,0,0
62892,17121,"Marion","IL","62892 Vernon",38.801281,-89.070895,"",0,0,0
62893,17081,"Jefferson","IL","62893 Walnut Hill",38.467172,-89.033284,"",0,0,0
62894,17081,"Jefferson","IL","62894 Waltonville",38.236519,-89.039995,"",0,0,0
62895,17191,"Wayne","IL","62895 Wayne City",38.306052,-88.548935,"",0,0,0
62896,17055,"Franklin","IL","62896 West Frankfort",37.897299,-88.920489,"",0,0,0
62897,17055,"Franklin","IL","62897 Whittington",38.087976,-88.901605,"",0,0,0
62898,17081,"Jefferson","IL","62898 Woodlawn",38.328881,-89.042703,"",0,0,0
62899,17025,"Clay","IL","62899 Xenia",38.639930,-88.635300,"",0,0,0
62901,17077,"Jackson","IL","62901 Carbondale",37.725321,-89.215926,"",0,0,0
62902,17077,"Jackson","IL","62902 Carbondale",37.676532,-89.153117,"",0,0,0
62903,17077,"Jackson","IL","62903 Carbondale",37.685388,-89.223919,"",0,0,0
62905,17181,"Union","IL","62905 Alto Pass",37.572031,-89.334844,"",0,0,0
62906,17181,"Union","IL","62906 Anna",37.455597,-89.227243,"",0,0,0
62907,17077,"Jackson","IL","62907 Ava",37.888341,-89.496362,"",0,0,0
62908,17087,"Johnson","IL","62908 Belknap",37.323774,-88.940291,"",0,0,0
62909,17087,"Johnson","IL","62909 Boles",37.369530,-89.014112,"62923",0,0,0
62910,17127,"Massac","IL","62910 Brookport",37.163185,-88.587151,"",0,0,0
62912,17087,"Johnson","IL","62912 Buncombe",37.472465,-89.027659,"",0,0,0
62914,17003,"Alexander","IL","62914 Cairo",37.005947,-89.181001,"",0,0,0
62915,17199,"Williamson","IL","62915 Cambria",37.784248,-89.119268,"62918",0,0,0
62916,17077,"Jackson","IL","62916 Campbell Hill",37.934238,-89.571408,"",0,0,0
62917,17165,"Saline","IL","62917 Carrier Mills",37.701978,-88.644184,"",0,0,0
62918,17199,"Williamson","IL","62918 Carterville",37.768292,-89.086528,"",0,0,0
62919,17069,"Hardin","IL","62919 Cave in Rock",37.538369,-88.223420,"",0,0,0
62920,17181,"Union","IL","62920 Cobden",37.515014,-89.259596,"",0,0,0
62921,17199,"Williamson","IL","62921 Colp",37.802281,-89.027599,"62948",0,0,0
62922,17199,"Williamson","IL","62922 Creal Springs",37.619447,-88.837571,"",0,0,0
62923,17087,"Johnson","IL","62923 Cypress",37.348774,-89.016637,"",0,0,0
62924,17077,"Jackson","IL","62924 De Soto",37.823834,-89.207820,"",0,0,0
62926,17181,"Union","IL","62926 Dongola",37.362963,-89.171709,"",0,0,0
62927,17077,"Jackson","IL","62927 Dowell",37.939771,-89.235239,"62932",0,0,0
62928,17151,"Pope","IL","62928 Eddyville",37.505113,-88.586594,"",0,0,0
62930,17165,"Saline","IL","62930 Eldorado",37.818147,-88.444372,"",0,0,0
62931,17069,"Hardin","IL","62931 Elizabethtown",37.484919,-88.270298,"",0,0,0
62932,17077,"Jackson","IL","62932 Elkville",37.907949,-89.234599,"",0,0,0
62933,17199,"Williamson","IL","62933 Energy",37.770799,-89.024161,"",0,0,0
62934,17059,"Gallatin","IL","62934 Equality",37.732424,-88.343843,"",0,0,0
62935,17165,"Saline","IL","62935 Galatia",37.834247,-88.635752,"",0,0,0
62938,17151,"Pope","IL","62938 Golconda",37.248530,-88.602074,"",0,0,0
62939,17087,"Johnson","IL","62939 Goreville",37.557148,-88.990956,"",0,0,0
62940,17077,"Jackson","IL","62940 Gorham",37.739567,-89.463436,"",0,0,0
62941,17153,"Pulaski","IL","62941 Grand Chain",37.240565,-88.935452,"",0,0,0
62942,17077,"Jackson","IL","62942 Grand Tower",37.627126,-89.491448,"",0,0,0
62943,17087,"Johnson","IL","62943 Grantsburg",37.355717,-88.760657,"",0,0,0
62946,17165,"Saline","IL","62946 Harrisburg",37.727641,-88.549771,"",0,0,0
62947,17165,"Saline","IL","62947 Herod",37.629408,-88.402549,"",0,0,0
62948,17199,"Williamson","IL","62948 Herrin",37.802425,-89.027644,"",0,0,0
62949,17199,"Williamson","IL","62949 Hurst",37.829687,-89.142607,"62918",0,0,0
62950,17077,"Jackson","IL","62950 Jacob",37.747482,-89.564383,"",0,0,0
62951,17199,"Williamson","IL","62951 Johnston City",37.822569,-88.928685,"",0,0,0
62952,17181,"Union","IL","62952 Jonesboro",37.409726,-89.283756,"",0,0,0
62953,17127,"Massac","IL","62953 Joppa",37.296361,-88.815521,"",0,0,0
62954,17059,"Gallatin","IL","62954 Junction",37.690183,-88.255592,"",0,0,0
62955,17069,"Hardin","IL","62955 Karbers Ridge",37.473314,-88.368642,"",0,0,0
62956,17153,"Pulaski","IL","62956 Karnak",37.275163,-88.933525,"",0,0,0
62957,17003,"Alexander","IL","62957 MC Clure",37.334611,-89.406386,"",0,0,0
62958,17077,"Jackson","IL","62958 Makanda",37.617635,-89.210481,"",0,0,0
62959,17199,"Williamson","IL","62959 Marion",37.726501,-88.923648,"",0,0,0
62960,17127,"Massac","IL","62960 Metropolis",37.165892,-88.729933,"",0,0,0
62961,17181,"Union","IL","62961 Millcreek",37.337586,-89.254866,"",0,0,0
62962,17003,"Alexander","IL","62962 Miller City",37.098537,-89.348760,"",0,0,0
62963,17153,"Pulaski","IL","62963 Mound City",37.087231,-89.162264,"",0,0,0
62964,17153,"Pulaski","IL","62964 Mounds",37.114921,-89.201842,"",0,0,0
62965,17165,"Saline","IL","62965 Muddy",37.737096,-88.542179,"62946",0,0,0
62966,17077,"Jackson","IL","62966 Murphysboro",37.770697,-89.330888,"",0,0,0
62967,17087,"Johnson","IL","62967 New Burnside",37.581137,-88.766149,"",0,0,0
62969,17003,"Alexander","IL","62969 Olive Branch",37.168443,-89.352622,"62990",0,0,0
62970,17153,"Pulaski","IL","62970 Olmsted",37.207829,-89.104705,"",0,0,0
62971,17077,"Jackson","IL","62971 Oraville",37.864883,-89.384371,"62966",0,0,0
62972,17087,"Johnson","IL","62972 Ozark",37.541511,-88.810233,"",0,0,0
62973,17153,"Pulaski","IL","62973 Perks",37.310060,-89.085436,"62992",0,0,0
62974,17199,"Williamson","IL","62974 Pittsburg",37.785199,-88.802417,"",0,0,0
62975,17077,"Jackson","IL","62975 Pomona",37.642967,-89.367391,"",0,0,0
62976,17153,"Pulaski","IL","62976 Pulaski",37.221347,-89.200186,"",0,0,0
62977,17165,"Saline","IL","62977 Raleigh",37.849758,-88.544369,"",0,0,0
62979,17059,"Gallatin","IL","62979 Ridgway",37.799226,-88.240462,"",0,0,0
62982,17069,"Hardin","IL","62982 Rosiclare",37.426005,-88.362643,"",0,0,0
62983,17055,"Franklin","IL","62983 Royalton",37.906720,-89.102574,"",0,0,0
62984,17059,"Gallatin","IL","62984 Shawneetown",37.702132,-88.171013,"",0,0,0
62985,17087,"Johnson","IL","62985 Simpson",37.467334,-88.764742,"",0,0,0
62987,17165,"Saline","IL","62987 Stonefort",37.656688,-88.671261,"",0,0,0
62988,17003,"Alexander","IL","62988 Tamms",37.237572,-89.266195,"",0,0,0
62990,17003,"Alexander","IL","62990 Thebes",37.221039,-89.459856,"",0,0,0
62992,17153,"Pulaski","IL","62992 Ullin",37.271046,-89.143791,"",0,0,0
62993,17003,"Alexander","IL","62993 Unity",37.149203,-89.273257,"62988",0,0,0
62994,17077,"Jackson","IL","62994 Vergennes",37.903872,-89.333701,"",0,0,0
62995,17087,"Johnson","IL","62995 Vienna",37.415468,-88.891880,"",0,0,0
62996,17153,"Pulaski","IL","62996 Villa Ridge",37.157680,-89.157348,"",0,0,0
62997,17145,"Perry","IL","62997 Willisville",37.981107,-89.526076,"",0,0,0
62998,17181,"Union","IL","62998 Wolf Lake",37.511018,-89.442317,"",0,0,0
62999,17055,"Franklin","IL","62999 Zeigler",37.892391,-89.053519,"",0,0,0
63673,29157,"Perry","IL","63673 Saint Mary",37.815904,-89.994959,"",0,0,0
